{"type":"FeatureCollection","features":[{"type":"Feature","properties":{"line":"BP","name":"Bukit Panjang LRT"},"geometry":{"type":"LineString","coordinates":[[103.74459,1.38473],[103.74458,1.38426],[103.74453,1.38375],[103.74446,1.38329],[103.74424,1.38203],[103.74414,1.38132],[103.74414,1.38118],[103.74417,1.38104],[103.74421,1.38091],[103.74423,1.38088],[103.74425,1.38086],[103.74435,1.38079],[103.7445,1.38069],[103.74498,1.38043],[103.74549,1.38018],[103.74612,1.37988],[103.74799,1.37905],[103.75026,1.37808],[103.75302,1.37683],[103.75325,1.37674],[103.75338,1.3767],[103.75353,1.37668],[103.75368,1.37667],[103.75386,1.37668],[103.75401,1.3767],[103.75421,1.37676],[103.7548,1.37697],[103.75542,1.37713],[103.75562,1.3772],[103.75573,1.37724],[103.75588,1.37733],[103.75709,1.3781],[103.75765,1.37844],[103.75785,1.37854],[103.75852,1.37881],[103.76017,1.37942],[103.76034,1.37948],[103.76048,1.3795],[103.76057,1.37948],[103.76071,1.37944],[103.7608,1.37938],[103.76087,1.37931],[103.76102,1.37909],[103.76163,1.37792],[103.76172,1.37781],[103.76179,1.37777],[103.76192,1.37773],[103.76204,1.37772],[103.76212,1.37772],[103.76237,1.37775],[103.76295,1.37786],[103.76445,1.37822],[103.76474,1.37828],[103.76488,1.3783],[103.7651,1.37832],[103.76524,1.37832],[103.7656,1.37829],[103.7658,1.37826],[103.76591,1.37823],[103.76605,1.37815],[103.76675,1.37768],[103.76783,1.37699],[103.76858,1.37652],[103.76926,1.37611],[103.76986,1.37577],[103.77016,1.37562],[103.77037,1.37552],[103.77051,1.37548],[103.77061,1.3755],[103.77068,1.37552],[103.77078,1.37557],[103.77084,1.37561],[103.77095,1.37572],[103.77111,1.37595],[103.77194,1.37732],[103.77226,1.37791],[103.77235,1.37809],[103.77242,1.37829],[103.77251,1.37856],[103.77257,1.37878],[103.77261,1.37906],[103.77263,1.37943],[103.77264,1.38005],[103.77262,1.38063],[103.77266,1.38123],[103.77265,1.38134],[103.77264,1.38143],[103.77259,1.38154],[103.77254,1.38161],[103.77245,1.38169],[103.77236,1.38174],[103.77219,1.38179],[103.77204,1.38181],[103.77186,1.38181],[103.77149,1.38181],[103.77013,1.38177],[103.76984,1.38178],[103.76964,1.3818],[103.76958,1.38182],[103.76951,1.38186],[103.76942,1.38196],[103.76936,1.38209],[103.76932,1.38225],[103.76931,1.38236],[103.76931,1.38247],[103.76932,1.38259],[103.76935,1.38276],[103.76941,1.38297],[103.76946,1.38308],[103.76952,1.3832],[103.76971,1.3835],[103.7699,1.38375],[103.77014,1.384],[103.77054,1.38434],[103.7708,1.38459],[103.77101,1.38485],[103.77123,1.38515],[103.77137,1.38538],[103.77149,1.38561],[103.77155,1.38573],[103.77159,1.38586],[103.7716,1.38594],[103.77159,1.38603],[103.77157,1.38609],[103.77151,1.38622],[103.77143,1.38636],[103.77123,1.38667],[103.77116,1.38676],[103.77104,1.38689],[103.77097,1.38696],[103.77081,1.38708],[103.77061,1.38722],[103.77038,1.38737],[103.76997,1.3876],[103.76944,1.38786],[103.76767,1.38866],[103.76743,1.38875],[103.76728,1.3888],[103.7671,1.38883],[103.76696,1.38883],[103.76684,1.38881],[103.7667,1.38878],[103.76653,1.38872],[103.76638,1.38866],[103.76625,1.38858],[103.76611,1.38848],[103.7659,1.38826],[103.76521,1.38746],[103.76456,1.38673],[103.76421,1.38631],[103.76411,1.38621],[103.764,1.38611],[103.76335,1.38563],[103.76318,1.38549],[103.76302,1.38534],[103.76287,1.3852],[103.76276,1.38507],[103.76269,1.38496],[103.76259,1.38478],[103.76253,1.38463],[103.76248,1.38447],[103.76227,1.38363],[103.76226,1.38347],[103.76226,1.38333],[103.76228,1.38315],[103.76233,1.38294],[103.76241,1.38269],[103.7625,1.3825],[103.76281,1.38196],[103.76298,1.38162],[103.76335,1.38077],[103.76387,1.37965],[103.76423,1.37886],[103.76428,1.37871],[103.76429,1.37857],[103.76428,1.37852],[103.76426,1.37845],[103.76423,1.37838],[103.76418,1.3783],[103.76413,1.37825],[103.76408,1.37822],[103.76394,1.37815],[103.76378,1.37809],[103.76364,1.37805],[103.76212,1.37769],[103.762,1.37769],[103.76193,1.3777],[103.76186,1.37773],[103.76172,1.3778],[103.76166,1.37785],[103.7616,1.37792],[103.76151,1.37807],[103.7614,1.37829],[103.76122,1.37875],[103.76107,1.37905],[103.76101,1.37917],[103.76093,1.37928],[103.76081,1.37938],[103.76068,1.37944],[103.76059,1.37946],[103.76043,1.37946],[103.76029,1.37942],[103.76012,1.37937],[103.7592,1.37902],[103.75844,1.37876],[103.75786,1.37857],[103.75775,1.37853],[103.75744,1.37835],[103.75681,1.37796],[103.75643,1.3777],[103.75592,1.37732],[103.75574,1.37721],[103.75564,1.37717],[103.75542,1.3771],[103.75504,1.377],[103.75477,1.37692],[103.75421,1.37671],[103.75401,1.37666],[103.75387,1.37665],[103.75367,1.37666],[103.75345,1.37667],[103.7533,1.3767],[103.75317,1.37674],[103.75153,1.37747],[103.74939,1.37844],[103.74886,1.37865],[103.74815,1.37891],[103.74768,1.37911],[103.7461,1.37986],[103.74529,1.38027],[103.74457,1.38065],[103.74438,1.38077],[103.74421,1.38089],[103.74418,1.38092],[103.74415,1.38097],[103.74412,1.38107],[103.7441,1.3812],[103.74411,1.38136],[103.74416,1.3819],[103.74436,1.38321],[103.74443,1.38375],[103.74444,1.38415],[103.74443,1.38475]]}},{"type":"Feature","properties":{"line":"CC","name":"Circle Line"},"geometry":{"type":"MultiLineString","coordinates":[[[103.83072,1.27039],[103.82937,1.26923],[103.82858,1.26853],[103.82795,1.26796],[103.82732,1.26734],[103.82683,1.2669],[103.82648,1.26662],[103.82612,1.26636],[103.82574,1.26612],[103.82536,1.26591],[103.82496,1.26573],[103.82456,1.26558],[103.82416,1.26546],[103.82396,1.26542],[103.82356,1.26535],[103.82336,1.26533],[103.82198,1.26523],[103.82173,1.26522],[103.82129,1.26521],[103.82076,1.26522],[103.82055,1.26526],[103.82031,1.26533],[103.82004,1.26543],[103.81975,1.26557],[103.81942,1.26574],[103.81907,1.26594],[103.81869,1.26618],[103.81788,1.26671],[103.81749,1.26696],[103.81673,1.26743],[103.81636,1.26764],[103.81564,1.26804],[103.81497,1.26839],[103.81414,1.26885],[103.81371,1.2691],[103.81303,1.2695],[103.81252,1.2698],[103.81198,1.27009],[103.81161,1.27025],[103.81124,1.27038],[103.81088,1.27046],[103.81069,1.27049],[103.80973,1.27059],[103.80913,1.27065],[103.80884,1.27068],[103.80829,1.27078],[103.80761,1.27091],[103.80716,1.27103],[103.80694,1.27109],[103.80654,1.27124],[103.80618,1.2714],[103.80566,1.27166],[103.80513,1.2719],[103.80458,1.27211],[103.80407,1.27228],[103.80377,1.27236],[103.80349,1.2724],[103.802,1.27255],[103.80182,1.27258],[103.80163,1.27262],[103.80124,1.27272],[103.80082,1.27286],[103.80006,1.27316],[103.79964,1.27332],[103.79781,1.27398],[103.79154,1.27616],[103.78855,1.27709],[103.78794,1.27729],[103.78687,1.27765],[103.78598,1.27797],[103.78529,1.27826],[103.78501,1.27839],[103.78475,1.27852],[103.78451,1.27865],[103.78429,1.27879],[103.78408,1.27894],[103.78389,1.27908],[103.78372,1.27923],[103.78357,1.27939],[103.78343,1.27955],[103.78316,1.27989],[103.78289,1.28026],[103.78276,1.28046],[103.78251,1.28088],[103.78191,1.28196],[103.78158,1.28263],[103.78127,1.28376],[103.78121,1.28401],[103.78111,1.28452],[103.78103,1.28504],[103.78098,1.28559],[103.78097,1.28587],[103.78096,1.28615],[103.78097,1.28642],[103.781,1.28669],[103.78103,1.28696],[103.78108,1.28722],[103.78115,1.28747],[103.78122,1.28772],[103.7814,1.2882],[103.78159,1.28863],[103.78178,1.28901],[103.78188,1.28917],[103.78208,1.28947],[103.78218,1.2896],[103.7824,1.28985],[103.78264,1.29006],[103.78276,1.29015],[103.78301,1.29031],[103.78314,1.29039],[103.78326,1.29049],[103.78337,1.29059],[103.78349,1.29071],[103.78369,1.29096],[103.78389,1.29126],[103.78405,1.29158],[103.78412,1.29174],[103.78423,1.29209],[103.78428,1.29227],[103.78432,1.29245],[103.78445,1.29332],[103.78446,1.2943],[103.78448,1.29452],[103.7845,1.29473],[103.78454,1.29494],[103.78459,1.29515],[103.78464,1.29536],[103.78471,1.29556],[103.78479,1.29577],[103.78498,1.29617],[103.78519,1.29658],[103.78554,1.29718],[103.78579,1.29758],[103.78606,1.29796],[103.78646,1.29848],[103.787,1.29914],[103.78715,1.29932],[103.78746,1.29975],[103.78762,1.29999],[103.78795,1.30052],[103.78813,1.30081],[103.7883,1.30113],[103.78865,1.30181],[103.789,1.30258],[103.78935,1.30343],[103.78984,1.30468],[103.7901,1.30532],[103.79032,1.3058],[103.79041,1.30599],[103.79081,1.30668],[103.7915,1.3078],[103.79162,1.30798],[103.79192,1.30839],[103.7923,1.30887],[103.79277,1.30941],[103.79303,1.3097],[103.7933,1.30998],[103.79355,1.31023],[103.79381,1.31047],[103.79407,1.31068],[103.79432,1.31087],[103.79457,1.31105],[103.79482,1.3112],[103.796,1.31183],[103.79814,1.31319],[103.79857,1.31345],[103.79898,1.31369],[103.79971,1.3141],[103.80003,1.31426],[103.80033,1.3144],[103.8006,1.31451],[103.80084,1.3146],[103.80108,1.31467],[103.80133,1.31474],[103.80158,1.31479],[103.80184,1.31484],[103.80209,1.31487],[103.80236,1.31489],[103.80262,1.31491],[103.80315,1.31492],[103.80339,1.31493],[103.80384,1.31497],[103.80404,1.315],[103.80441,1.31508],[103.80458,1.31512],[103.80476,1.3152],[103.80496,1.3153],[103.80517,1.31543],[103.8054,1.31558],[103.80565,1.31577],[103.80591,1.31598],[103.80618,1.31622],[103.80762,1.31753],[103.80875,1.31849],[103.80896,1.31866],[103.80917,1.31881],[103.80937,1.31894],[103.80957,1.31905],[103.80976,1.31915],[103.80995,1.31923],[103.81013,1.31929],[103.81049,1.31936],[103.81102,1.31945],[103.81137,1.31948],[103.81173,1.3195],[103.81208,1.31954],[103.81242,1.31962],[103.81275,1.31973],[103.81308,1.31987],[103.81325,1.31997],[103.81342,1.32008],[103.8136,1.32022],[103.81377,1.32039],[103.81396,1.32057],[103.81414,1.32077],[103.81433,1.321],[103.81532,1.32226],[103.81651,1.32364],[103.81669,1.32393],[103.81686,1.32429],[103.81702,1.32472],[103.81717,1.32521],[103.8173,1.32577],[103.81743,1.32639],[103.81755,1.32709],[103.81766,1.32785],[103.81776,1.32853],[103.81787,1.32914],[103.81797,1.32967],[103.81807,1.33012],[103.81816,1.33049],[103.81826,1.33079],[103.81835,1.331],[103.81844,1.33114],[103.81854,1.33127],[103.81865,1.3314],[103.81877,1.33151],[103.8189,1.33162],[103.81903,1.33172],[103.81917,1.33181],[103.81933,1.33189],[103.81969,1.33205],[103.82021,1.33226],[103.82089,1.33251],[103.8222,1.33297],[103.82336,1.33335],[103.82412,1.33358],[103.8244,1.33365],[103.82487,1.33369],[103.82523,1.33371],[103.82678,1.33374],[103.82955,1.33376],[103.83156,1.33376],[103.83255,1.33374],[103.83319,1.33371],[103.83385,1.33366],[103.83489,1.33356],[103.83524,1.33354],[103.83558,1.33353],[103.83591,1.33354],[103.83624,1.33356],[103.83656,1.3336],[103.83687,1.33365],[103.83718,1.33372],[103.83749,1.33381],[103.83777,1.33391],[103.83803,1.33404],[103.83828,1.33419],[103.83851,1.33436],[103.83871,1.33455],[103.8389,1.33476],[103.83907,1.335],[103.83922,1.33525],[103.83935,1.3355],[103.83946,1.33574],[103.83956,1.33596],[103.83963,1.33617],[103.83968,1.33638],[103.83971,1.33657],[103.83973,1.33675],[103.83967,1.33776],[103.83953,1.33975],[103.83946,1.34113],[103.83943,1.34165],[103.83935,1.34244],[103.83923,1.34321],[103.8392,1.34351],[103.83918,1.34384],[103.83918,1.34421],[103.83918,1.34461],[103.83919,1.34505],[103.83926,1.34605],[103.83937,1.34714],[103.83943,1.34767],[103.83956,1.3487],[103.83972,1.34968],[103.83989,1.35061],[103.83999,1.35103],[103.84009,1.35141],[103.84021,1.35175],[103.84034,1.35204],[103.84047,1.3523],[103.84062,1.35251],[103.84077,1.35268],[103.84093,1.35281],[103.8411,1.35293],[103.84126,1.35304],[103.84142,1.35313],[103.84159,1.35321],[103.84175,1.35327],[103.84191,1.35332],[103.84207,1.35336],[103.84223,1.35338],[103.8424,1.35339],[103.84258,1.35338],[103.84276,1.35334],[103.84296,1.35329],[103.84316,1.35322],[103.84337,1.35313],[103.84358,1.35303],[103.84403,1.35278],[103.84444,1.35257],[103.84499,1.35232],[103.84532,1.35219],[103.84581,1.35204],[103.84629,1.35193],[103.84693,1.35183],[103.84738,1.35174],[103.84854,1.35144],[103.85319,1.3504],[103.85496,1.35001],[103.85683,1.34962],[103.85723,1.34954],[103.85773,1.34946],[103.85793,1.34945],[103.85813,1.34946],[103.85834,1.34948],[103.85854,1.34952],[103.85876,1.34957],[103.85897,1.34964],[103.85919,1.34973],[103.86124,1.35069],[103.86169,1.35089],[103.8619,1.35098],[103.86229,1.35112],[103.86266,1.35123],[103.86348,1.35142],[103.86376,1.35148],[103.86564,1.35177],[103.86601,1.35184],[103.86658,1.35197],[103.86674,1.35199],[103.86708,1.35201],[103.86728,1.35202],[103.8677,1.35201],[103.86793,1.352],[103.86818,1.35198],[103.86845,1.35193],[103.86874,1.35187],[103.86905,1.3518],[103.86939,1.35171],[103.87011,1.35148],[103.87087,1.35121],[103.87152,1.35096],[103.87232,1.35064],[103.87273,1.35045],[103.87305,1.35029],[103.87329,1.35015],[103.87339,1.35008],[103.87351,1.34996],[103.87434,1.34871],[103.87446,1.34852],[103.87456,1.34833],[103.87464,1.34815],[103.87471,1.34798],[103.87477,1.34782],[103.8748,1.34767],[103.87482,1.34753],[103.87483,1.34727],[103.87486,1.34703],[103.87489,1.34692],[103.87496,1.34672],[103.875,1.34662],[103.87564,1.34545],[103.87574,1.34529],[103.87583,1.34514],[103.87604,1.34487],[103.87625,1.34464],[103.87646,1.34446],[103.87677,1.34426],[103.87719,1.34402],[103.87771,1.34375],[103.87962,1.34283],[103.88151,1.34195],[103.88245,1.34152],[103.88336,1.34113],[103.88358,1.34102],[103.88402,1.34079],[103.88445,1.34053],[103.88467,1.34039],[103.88509,1.34008],[103.88549,1.33974],[103.88589,1.33936],[103.88626,1.33896],[103.88663,1.33852],[103.88696,1.33806],[103.88726,1.33759],[103.88752,1.3371],[103.88763,1.33684],[103.88819,1.33552],[103.88822,1.33541],[103.88843,1.33469],[103.88895,1.3328],[103.88911,1.33223],[103.88938,1.33111],[103.88963,1.33002],[103.88974,1.32948],[103.88985,1.32894],[103.89029,1.32654],[103.89114,1.32229],[103.89157,1.32023],[103.89217,1.31756],[103.89219,1.31743],[103.89221,1.31706],[103.8922,1.31624],[103.89213,1.31445],[103.89202,1.31222],[103.89201,1.31184],[103.89201,1.3113],[103.892,1.31093],[103.89197,1.31055],[103.89194,1.3103],[103.89187,1.31007],[103.89177,1.30985],[103.89171,1.30975],[103.89156,1.30956],[103.89145,1.30946],[103.89131,1.30936],[103.89115,1.30926],[103.89096,1.30916],[103.89073,1.30906],[103.89021,1.30886],[103.88917,1.30852],[103.88871,1.30838],[103.88862,1.30836],[103.88706,1.30805],[103.88676,1.30798],[103.88644,1.30789],[103.88611,1.30778],[103.88577,1.30766],[103.88503,1.30738],[103.88465,1.30721],[103.88269,1.30632],[103.8754,1.30283],[103.87374,1.30219],[103.87323,1.30201],[103.87291,1.30193],[103.87235,1.30185],[103.87095,1.3017],[103.87053,1.30164],[103.87017,1.30157],[103.86956,1.30141],[103.86809,1.30098],[103.86755,1.30084],[103.86661,1.30063],[103.86529,1.30036],[103.86502,1.3003],[103.86459,1.30018],[103.86429,1.30007],[103.8638,1.29982],[103.86339,1.2996],[103.86258,1.29922],[103.86241,1.29914],[103.8621,1.29894],[103.86196,1.29884],[103.86183,1.29873],[103.86171,1.29861],[103.8616,1.29849],[103.86149,1.29836],[103.8614,1.29824],[103.86124,1.29799],[103.86113,1.29774],[103.86108,1.29762],[103.86103,1.29738],[103.86101,1.29721],[103.86099,1.29672],[103.86099,1.29603],[103.86101,1.29513],[103.86109,1.29278],[103.86115,1.29046],[103.86113,1.2895],[103.86111,1.28898],[103.86104,1.28787],[103.86094,1.28665],[103.86087,1.28608],[103.86079,1.28555],[103.8607,1.28508],[103.8606,1.28465],[103.86049,1.28427],[103.86036,1.28395],[103.86023,1.28367],[103.8549,1.27539],[103.85481,1.27526],[103.85428,1.27455],[103.85413,1.27437],[103.85397,1.27423],[103.8539,1.27418],[103.85383,1.27414],[103.85362,1.27404],[103.85309,1.27385],[103.85299,1.27382],[103.85281,1.27378],[103.85263,1.27376],[103.85245,1.27377],[103.85237,1.27378],[103.85211,1.27383],[103.85185,1.27391],[103.85159,1.27402],[103.85142,1.27408],[103.85126,1.27412],[103.8511,1.27414],[103.85095,1.27416],[103.85069,1.27416],[103.85027,1.27412],[103.84979,1.27402],[103.84909,1.27383],[103.84766,1.2734],[103.84659,1.27306],[103.84636,1.27301],[103.84606,1.27296],[103.8457,1.27292],[103.84529,1.27289],[103.84482,1.27286],[103.84371,1.27281],[103.84154,1.27277],[103.84031,1.27276],[103.84007,1.27277],[103.83981,1.2728],[103.83954,1.27285],[103.8391,1.27294],[103.8386,1.27301],[103.83801,1.27305],[103.83733,1.27306],[103.83649,1.27304],[103.83549,1.273],[103.83443,1.27294],[103.8341,1.27292],[103.8339,1.27289],[103.83369,1.27284],[103.83356,1.27279],[103.83345,1.27273],[103.83332,1.27263],[103.83242,1.27187],[103.83074,1.27041]],[[103.86109,1.29278],[103.861,1.29218],[103.86098,1.29205],[103.86092,1.29184],[103.86088,1.29176],[103.86083,1.29168],[103.86078,1.29162],[103.86073,1.29156],[103.8606,1.29149],[103.86043,1.29142],[103.86022,1.29137],[103.85997,1.29132],[103.85968,1.2913],[103.85939,1.29132],[103.85924,1.29134],[103.85893,1.29141],[103.85861,1.29153],[103.85825,1.29169],[103.85805,1.29179],[103.85761,1.29204],[103.8571,1.29233],[103.85557,1.29328],[103.85426,1.2942],[103.85058,1.29683],[103.84971,1.29742],[103.84949,1.29755],[103.84923,1.29768],[103.84893,1.29782],[103.8486,1.29797],[103.84781,1.29827],[103.84736,1.29843],[103.84516,1.29919]]]}},{"type":"Feature","properties":{"line":"DT","name":"Downtown Line"},"geometry":{"type":"LineString","coordinates":[[103.76215,1.3783],[103.76219,1.3782],[103.76226,1.37762],[103.76261,1.37427],[103.76273,1.37323],[103.76278,1.37283],[103.76287,1.37226],[103.76291,1.3721],[103.76294,1.37201],[103.76305,1.37175],[103.7632,1.3715],[103.76427,1.37005],[103.76452,1.36968],[103.76504,1.36891],[103.76529,1.36844],[103.76581,1.36741],[103.76631,1.36643],[103.76675,1.36554],[103.76706,1.36487],[103.76725,1.36442],[103.7673,1.36427],[103.76738,1.3638],[103.76739,1.36357],[103.76738,1.36351],[103.76735,1.36342],[103.76713,1.36268],[103.7671,1.36254],[103.7671,1.36202],[103.76708,1.36175],[103.76705,1.36145],[103.76704,1.36116],[103.76708,1.36052],[103.76717,1.35962],[103.76727,1.35876],[103.76734,1.35829],[103.7674,1.3579],[103.76748,1.35757],[103.76753,1.35741],[103.76766,1.35709],[103.76783,1.35677],[103.76815,1.3563],[103.76834,1.35598],[103.76861,1.35549],[103.76883,1.35499],[103.76905,1.35449],[103.76924,1.35393],[103.76952,1.35294],[103.76967,1.35225],[103.76981,1.35135],[103.77003,1.34979],[103.77011,1.34928],[103.77014,1.34913],[103.77023,1.34894],[103.77031,1.3488],[103.77068,1.34821],[103.77175,1.34662],[103.77194,1.3464],[103.77205,1.3463],[103.77225,1.34614],[103.77252,1.34596],[103.77294,1.3457],[103.7745,1.34478],[103.7749,1.34453],[103.77517,1.34434],[103.77524,1.34428],[103.7753,1.34421],[103.77538,1.34394],[103.77553,1.34336],[103.77591,1.34174],[103.77608,1.3409],[103.77611,1.34081],[103.77621,1.34058],[103.77638,1.34026],[103.7766,1.33986],[103.77687,1.33941],[103.77699,1.33922],[103.77723,1.33889],[103.77733,1.33876],[103.77744,1.33864],[103.77754,1.33855],[103.77763,1.33848],[103.7778,1.33838],[103.77806,1.33825],[103.77841,1.33809],[103.77935,1.33769],[103.78062,1.33718],[103.78409,1.33581],[103.78697,1.33477],[103.78919,1.33392],[103.79106,1.33317],[103.79583,1.33126],[103.79737,1.33064],[103.80148,1.3293],[103.80246,1.32897],[103.80273,1.32887],[103.80704,1.32601],[103.80943,1.32444],[103.80992,1.32414],[103.81038,1.32387],[103.81082,1.32363],[103.81122,1.32344],[103.81161,1.32327],[103.81196,1.32315],[103.81229,1.32305],[103.81318,1.32289],[103.81375,1.3228],[103.81456,1.3227],[103.8175,1.32243],[103.81795,1.32237],[103.81845,1.32227],[103.819,1.32215],[103.81961,1.32201],[103.82027,1.32183],[103.82098,1.32163],[103.82174,1.32139],[103.83097,1.31845],[103.83197,1.31811],[103.83285,1.31781],[103.8336,1.31753],[103.83423,1.31727],[103.83474,1.31704],[103.83512,1.31683],[103.83538,1.31664],[103.83792,1.3137],[103.83823,1.31337],[103.83845,1.31319],[103.83865,1.31306],[103.84209,1.31133],[103.84276,1.31099],[103.84397,1.31035],[103.845,1.30977],[103.84585,1.30926],[103.8462,1.30903],[103.84654,1.3088],[103.84718,1.30835],[103.84747,1.30813],[103.84801,1.3077],[103.84826,1.3075],[103.85032,1.30567],[103.85068,1.30537],[103.85103,1.30509],[103.85137,1.30483],[103.85182,1.30451],[103.85216,1.30427],[103.85254,1.30402],[103.85283,1.30382],[103.85339,1.3034],[103.85366,1.30318],[103.85425,1.30238],[103.85473,1.3018],[103.85501,1.30152],[103.85614,1.30048],[103.85631,1.30032],[103.85644,1.30015],[103.8567,1.29978],[103.85687,1.29956],[103.85728,1.29907],[103.85779,1.29843],[103.85803,1.29814],[103.85839,1.29777],[103.85932,1.29688],[103.85971,1.29649],[103.86029,1.29586],[103.86041,1.29571],[103.86048,1.29562],[103.86055,1.29551],[103.86063,1.29536],[103.86069,1.29521],[103.86074,1.29507],[103.8609,1.2945],[103.86098,1.29412],[103.86103,1.29358],[103.86112,1.29238],[103.86115,1.29175],[103.86116,1.29116],[103.86114,1.29015],[103.86113,1.28823],[103.86106,1.2859],[103.86105,1.28572],[103.86101,1.28546],[103.86092,1.28509],[103.86079,1.28469],[103.86071,1.2845],[103.8606,1.28425],[103.86053,1.28412],[103.85981,1.28287],[103.85837,1.28058],[103.85822,1.28038],[103.85808,1.2802],[103.85749,1.27956],[103.85709,1.27914],[103.85688,1.27896],[103.85676,1.27886],[103.85665,1.2788],[103.85647,1.27871],[103.85625,1.2786],[103.85595,1.2785],[103.85564,1.27843],[103.85534,1.2784],[103.85519,1.2784],[103.85499,1.27841],[103.85481,1.27843],[103.85467,1.27845],[103.85442,1.27852],[103.85426,1.27859],[103.85414,1.27864],[103.85382,1.27881],[103.85326,1.27915],[103.85228,1.27984],[103.85158,1.28034],[103.85108,1.28072],[103.85067,1.281],[103.84987,1.28149],[103.8473,1.28297],[103.84641,1.28349],[103.84531,1.28416],[103.84446,1.2847],[103.84408,1.28495],[103.84337,1.28561],[103.84257,1.28643],[103.84249,1.28653],[103.84237,1.2867],[103.84225,1.2869],[103.84215,1.28711],[103.84206,1.28736],[103.84194,1.28784],[103.84193,1.28795],[103.84193,1.28808],[103.84196,1.28843],[103.84202,1.28871],[103.84206,1.28889],[103.84212,1.28906],[103.84222,1.28926],[103.84241,1.2896],[103.84289,1.29035],[103.84454,1.2928],[103.84459,1.29287],[103.8449,1.2932],[103.84543,1.29374],[103.84856,1.29688],[103.84926,1.2976],[103.84967,1.29808],[103.85025,1.2988],[103.85124,1.29993],[103.85184,1.30064],[103.85306,1.30212],[103.85391,1.30316],[103.85425,1.30363],[103.85495,1.30472],[103.85545,1.30546],[103.85565,1.30577],[103.85585,1.30613],[103.85599,1.30636],[103.85689,1.30775],[103.85725,1.30825],[103.85742,1.30848],[103.85776,1.30891],[103.85949,1.31086],[103.8598,1.31117],[103.8607,1.31206],[103.86099,1.31237],[103.8614,1.31283],[103.8616,1.31302],[103.86172,1.31312],[103.86182,1.31318],[103.86208,1.31332],[103.8627,1.31359],[103.86337,1.31387],[103.86354,1.31395],[103.86369,1.31405],[103.86385,1.31417],[103.864,1.3143],[103.86417,1.31447],[103.8643,1.31462],[103.86448,1.31493],[103.86481,1.31554],[103.86548,1.31685],[103.86579,1.31742],[103.86593,1.31762],[103.86603,1.31775],[103.86615,1.31788],[103.86628,1.318],[103.86662,1.31825],[103.86765,1.31891],[103.86868,1.31955],[103.87108,1.32103],[103.8717,1.32141],[103.87234,1.32179],[103.87412,1.32277],[103.87516,1.32331],[103.87578,1.32361],[103.87607,1.32374],[103.87721,1.32421],[103.87747,1.32432],[103.8776,1.32439],[103.87766,1.32446],[103.87784,1.32469],[103.87895,1.32619],[103.87931,1.32665],[103.87946,1.32683],[103.87969,1.3271],[103.87978,1.32718],[103.87998,1.32731],[103.88013,1.32739],[103.88029,1.32745],[103.88046,1.3275],[103.88069,1.32755],[103.88082,1.32757],[103.88099,1.32757],[103.88133,1.32753],[103.88161,1.32748],[103.8818,1.32743],[103.88198,1.32738],[103.88216,1.32731],[103.88272,1.32705],[103.8841,1.3264],[103.88431,1.32631],[103.88452,1.32624],[103.88493,1.32612],[103.88538,1.32602],[103.88587,1.32594],[103.88668,1.32584],[103.88742,1.32576],[103.8877,1.32573],[103.88799,1.32572],[103.88828,1.32575],[103.88853,1.3258],[103.88873,1.32587],[103.88999,1.32643],[103.89044,1.32661],[103.89209,1.32709],[103.89247,1.32721],[103.89334,1.32751],[103.89437,1.32791],[103.89554,1.3284],[103.8984,1.32962],[103.89933,1.33],[103.90031,1.33046],[103.90083,1.33073],[103.90132,1.33102],[103.90175,1.33131],[103.90207,1.33154],[103.90229,1.33172],[103.90268,1.33207],[103.90297,1.33236],[103.9033,1.33269],[103.90362,1.333],[103.90378,1.33314],[103.9041,1.33339],[103.90441,1.3336],[103.90471,1.33378],[103.90501,1.33394],[103.90545,1.33415],[103.90574,1.33427],[103.90609,1.33438],[103.90675,1.33457],[103.90728,1.33469],[103.90943,1.33516],[103.90984,1.33528],[103.91008,1.33536],[103.91063,1.33555],[103.91196,1.33608],[103.9125,1.33628],[103.91289,1.33642],[103.91315,1.33648],[103.91338,1.33649],[103.91355,1.33648],[103.91373,1.33645],[103.91392,1.33641],[103.91405,1.33637],[103.91442,1.33624],[103.91522,1.33591],[103.91804,1.33467],[103.91919,1.33419],[103.91969,1.33401],[103.92002,1.33392],[103.92033,1.33388],[103.92093,1.33381],[103.92114,1.3338],[103.92135,1.3338],[103.92155,1.33382],[103.92175,1.33384],[103.92198,1.3339],[103.92222,1.33397],[103.92248,1.33407],[103.92439,1.33486],[103.92506,1.3351],[103.92585,1.33536],[103.92677,1.33562],[103.92727,1.33576],[103.92871,1.33614],[103.92938,1.3363],[103.92983,1.33641],[103.92997,1.33644],[103.93014,1.33646],[103.93068,1.33648],[103.93191,1.33648],[103.93281,1.33649],[103.93353,1.33649],[103.93385,1.33651],[103.93455,1.33659],[103.93517,1.33667],[103.9358,1.33676],[103.93638,1.33687],[103.93692,1.33698],[103.93743,1.3371],[103.93787,1.33722],[103.93839,1.33738],[103.93863,1.33749],[103.93882,1.33759],[103.9389,1.33765],[103.93905,1.33777],[103.93912,1.33783],[103.93924,1.33798],[103.93939,1.33821],[103.93951,1.33848],[103.93962,1.33877],[103.93964,1.33889],[103.93965,1.33905],[103.93966,1.33943],[103.93962,1.33991],[103.93955,1.3405],[103.93944,1.34113],[103.93938,1.34146],[103.93923,1.34213],[103.93914,1.34247],[103.93861,1.34441],[103.93856,1.34464],[103.93853,1.34482],[103.93851,1.3451],[103.9385,1.34586],[103.93849,1.34616],[103.93826,1.34909],[103.93821,1.34992],[103.9382,1.35009],[103.93821,1.35028],[103.93824,1.35048],[103.9383,1.35067],[103.93835,1.35079],[103.93843,1.3509],[103.93878,1.35127],[103.93905,1.35153],[103.93977,1.3522],[103.94158,1.35383],[103.94244,1.35462],[103.94274,1.35491],[103.94324,1.35543],[103.94331,1.35549],[103.94403,1.35611],[103.94426,1.35629],[103.94445,1.35643],[103.9446,1.35652],[103.94478,1.35659],[103.94498,1.35664],[103.94518,1.35668],[103.94572,1.3567],[103.94719,1.3567],[103.94891,1.35669],[103.94968,1.35667],[103.94984,1.35666],[103.95021,1.35662],[103.95187,1.35638],[103.95246,1.35631],[103.95302,1.35625],[103.95358,1.35621],[103.95414,1.35618],[103.95499,1.35615],[103.9555,1.35615],[103.9559,1.35617],[103.95664,1.35624],[103.95704,1.35631],[103.95723,1.35636],[103.95742,1.35641],[103.95779,1.35654],[103.95847,1.35685],[103.9588,1.35697],[103.95912,1.35707],[103.95943,1.35715],[103.95972,1.35721],[103.96006,1.35725],[103.96024,1.35725],[103.96059,1.3572],[103.96078,1.35715],[103.96095,1.3571],[103.96112,1.35703],[103.96129,1.35695],[103.96146,1.35686],[103.96162,1.35677],[103.96177,1.35665],[103.96198,1.35645],[103.96226,1.35614],[103.96271,1.35561],[103.96288,1.3554],[103.96295,1.35528],[103.96307,1.35503],[103.96316,1.3548],[103.9633,1.35439],[103.96343,1.35397],[103.96354,1.35356],[103.96363,1.35315],[103.96372,1.35272],[103.96379,1.35229],[103.96384,1.35186],[103.96385,1.35157],[103.96385,1.35129],[103.96382,1.35099],[103.96378,1.35063],[103.96372,1.35022],[103.9636,1.3495],[103.96342,1.34876],[103.96314,1.34772],[103.96252,1.34557],[103.96124,1.34129],[103.96089,1.34018],[103.96069,1.33959],[103.9606,1.33937],[103.96045,1.33906],[103.96036,1.33881],[103.96033,1.33864],[103.96029,1.33837],[103.96026,1.33806],[103.96026,1.33786],[103.96026,1.33761],[103.96031,1.33738],[103.96039,1.33717],[103.9605,1.33699],[103.96061,1.33687],[103.96094,1.33657],[103.96217,1.33556]]}},{"type":"Feature","properties":{"line":"EW","name":"East West Line"},"geometry":{"type":"MultiLineString","coordinates":[[[103.94933,1.37301],[103.94916,1.37237],[103.94881,1.3712],[103.94833,1.36944],[103.94807,1.36844],[103.94796,1.36808],[103.94784,1.36776],[103.94769,1.36739],[103.9475,1.36697],[103.9472,1.36635],[103.94681,1.36566],[103.94601,1.36432],[103.94588,1.36409],[103.94573,1.36378],[103.94541,1.3631],[103.94529,1.36282],[103.94519,1.36256],[103.94485,1.36158],[103.94458,1.36078],[103.94419,1.35951],[103.94396,1.35875],[103.94375,1.35809],[103.94364,1.35765],[103.94357,1.35734],[103.94354,1.35704],[103.94353,1.35664],[103.94355,1.35625],[103.94359,1.356],[103.94363,1.3558],[103.94368,1.35562],[103.94374,1.35547],[103.94386,1.35519],[103.94399,1.35494],[103.94411,1.35473],[103.94425,1.35454],[103.94445,1.35429],[103.94484,1.35383],[103.9455,1.353],[103.94634,1.3519],[103.94839,1.3494],[103.95216,1.34477],[103.95278,1.34403],[103.95386,1.34273],[103.95438,1.34205],[103.95493,1.34138],[103.95525,1.34095],[103.95535,1.3408],[103.95548,1.34057],[103.95561,1.34033],[103.95574,1.34004],[103.9559,1.33963],[103.95603,1.33919],[103.95633,1.3379],[103.95644,1.33737],[103.95651,1.33692],[103.95658,1.3364],[103.95661,1.3359],[103.9566,1.33555],[103.95654,1.33508],[103.9565,1.33479],[103.95644,1.33451],[103.95637,1.33422],[103.95629,1.33394],[103.95621,1.33371],[103.95612,1.33348],[103.95598,1.33317],[103.95585,1.3329],[103.95575,1.33272],[103.95564,1.33255],[103.95543,1.33226],[103.95524,1.33201],[103.95493,1.33165],[103.95455,1.33126],[103.95431,1.33105],[103.95398,1.33079],[103.95375,1.33061],[103.95354,1.33047],[103.95252,1.3299],[103.95127,1.3292],[103.95029,1.32863],[103.95,1.32848],[103.9494,1.32824],[103.94753,1.3275],[103.94656,1.32714],[103.94546,1.32674],[103.94501,1.3266],[103.94387,1.32626],[103.94207,1.32568],[103.94159,1.32554],[103.94104,1.3254],[103.94062,1.32533],[103.94017,1.32526],[103.93254,1.32427],[103.93097,1.32408],[103.92873,1.32377],[103.92801,1.32366],[103.92476,1.32309],[103.92445,1.32302],[103.92415,1.32294],[103.92361,1.32279],[103.92335,1.32271],[103.92228,1.32234],[103.91987,1.32148],[103.91952,1.32137],[103.9193,1.32132],[103.91885,1.32126],[103.91854,1.32125],[103.91816,1.32127],[103.91764,1.32132],[103.91675,1.32143],[103.91649,1.32145],[103.91593,1.32146],[103.91547,1.32143],[103.9152,1.3214],[103.91487,1.32134],[103.91369,1.32111],[103.90848,1.32],[103.90813,1.31992],[103.90786,1.31988],[103.90755,1.31985],[103.90715,1.31984],[103.90689,1.31986],[103.90639,1.31992],[103.90579,1.31997],[103.9054,1.31998],[103.90502,1.31997],[103.90452,1.31993],[103.90406,1.31988],[103.90154,1.31955],[103.90115,1.31949],[103.90078,1.31942],[103.89846,1.31895],[103.89575,1.3184],[103.89532,1.31834],[103.8946,1.31824],[103.89226,1.31796],[103.89095,1.31783],[103.8904,1.31775],[103.88858,1.31743],[103.88608,1.31698],[103.88501,1.31678],[103.88408,1.31658],[103.88338,1.31645],[103.88223,1.31625],[103.8807,1.31602],[103.87949,1.31582],[103.87872,1.31568],[103.87812,1.31556],[103.87784,1.31547],[103.87748,1.31533],[103.87713,1.31515],[103.87679,1.31495],[103.87652,1.31478],[103.8742,1.31321],[103.87366,1.31285],[103.87081,1.31105],[103.8705,1.31086],[103.87018,1.31069],[103.86998,1.3106],[103.86977,1.31052],[103.8692,1.31035],[103.86806,1.31004],[103.86585,1.30946],[103.86552,1.30935],[103.86517,1.30919],[103.86507,1.30914],[103.865,1.30909],[103.86468,1.30881],[103.86418,1.30834],[103.86325,1.30743],[103.86271,1.30692],[103.86054,1.30476],[103.85606,1.30028],[103.85352,1.29755],[103.85264,1.29659],[103.85203,1.2959],[103.85182,1.29566],[103.85168,1.29549],[103.8516,1.29538],[103.85157,1.29523],[103.85156,1.29508],[103.85157,1.295],[103.85159,1.29488],[103.85172,1.29455],[103.85184,1.29427],[103.85197,1.29401],[103.85212,1.29379],[103.85233,1.29354],[103.85299,1.2928],[103.85319,1.29256],[103.85338,1.29231],[103.85349,1.29213],[103.85359,1.29195],[103.85367,1.29179],[103.85376,1.29156],[103.85378,1.29149],[103.8538,1.29133],[103.8538,1.29125],[103.85379,1.29108],[103.85373,1.29079],[103.85362,1.29052],[103.85335,1.28991],[103.85231,1.28779],[103.85198,1.28709],[103.85186,1.28682],[103.85174,1.28649],[103.85168,1.28625],[103.85158,1.28572],[103.85151,1.28519],[103.85145,1.28454],[103.85136,1.28282],[103.85131,1.28263],[103.85124,1.28246],[103.85086,1.28186],[103.84894,1.27884],[103.84814,1.27761],[103.84779,1.27708],[103.84769,1.277],[103.84761,1.27694],[103.8475,1.27689],[103.84734,1.27683],[103.84714,1.27678],[103.84658,1.27665],[103.84619,1.27659],[103.84547,1.27651],[103.84519,1.27649],[103.84431,1.27652],[103.84379,1.27655],[103.84358,1.27657],[103.84338,1.27662],[103.84318,1.27669],[103.843,1.27681],[103.84276,1.27701],[103.84258,1.27719],[103.84237,1.27742],[103.84226,1.27757],[103.84201,1.27791],[103.84174,1.27833],[103.84081,1.27983],[103.84064,1.2801],[103.84053,1.28025],[103.84042,1.28038],[103.84007,1.28075],[103.83975,1.28102],[103.83929,1.28133],[103.8384,1.2819],[103.83607,1.28339],[103.8357,1.28363],[103.83554,1.28375],[103.83532,1.28394],[103.83517,1.28408],[103.83404,1.28527],[103.8336,1.2857],[103.83331,1.28596],[103.83325,1.286],[103.83311,1.28606],[103.83299,1.2861],[103.83288,1.28612],[103.83259,1.28612],[103.83109,1.28611],[103.8275,1.28605],[103.82729,1.28607],[103.82687,1.28616],[103.82558,1.28647],[103.82514,1.28659],[103.82498,1.28665],[103.82488,1.28671],[103.82451,1.28697],[103.82316,1.28797],[103.82261,1.28837],[103.82243,1.28847],[103.82227,1.28853],[103.82192,1.28861],[103.8216,1.28866],[103.82039,1.28873],[103.81893,1.28879],[103.81866,1.28882],[103.81833,1.28888],[103.81806,1.28896],[103.81783,1.28904],[103.81729,1.2893],[103.81574,1.29009],[103.81548,1.2902],[103.81518,1.29031],[103.81487,1.29038],[103.81425,1.29049],[103.80994,1.29117],[103.80963,1.29125],[103.80932,1.29136],[103.80914,1.29144],[103.80881,1.29162],[103.80863,1.29173],[103.80848,1.29184],[103.80798,1.29227],[103.80712,1.29304],[103.80691,1.29325],[103.80675,1.29343],[103.80655,1.29369],[103.80634,1.294],[103.80549,1.29533],[103.80541,1.29547],[103.80508,1.29608],[103.80489,1.2964],[103.80479,1.29653],[103.80462,1.29675],[103.80438,1.29701],[103.80395,1.29741],[103.8018,1.2993],[103.80087,1.30014],[103.80001,1.3009],[103.7995,1.30134],[103.79876,1.30196],[103.79757,1.303],[103.79717,1.30339],[103.79698,1.30357],[103.79434,1.30593],[103.79404,1.30618],[103.79374,1.3064],[103.79356,1.30651],[103.79331,1.30664],[103.79304,1.30675],[103.79275,1.30685],[103.7925,1.30691],[103.7922,1.30697],[103.79143,1.30706],[103.79073,1.30712],[103.78907,1.30728],[103.78882,1.30732],[103.78816,1.30745],[103.78773,1.30751],[103.78537,1.30774],[103.78507,1.30779],[103.78485,1.30783],[103.78465,1.30788],[103.78445,1.30794],[103.78428,1.30801],[103.78406,1.30811],[103.78367,1.30832],[103.77816,1.31163],[103.77749,1.31204],[103.77725,1.31217],[103.77704,1.31225],[103.77682,1.31233],[103.77652,1.31241],[103.77626,1.31245],[103.776,1.31248],[103.77569,1.31248],[103.77542,1.31247],[103.77442,1.31236],[103.77281,1.31217],[103.7715,1.31202],[103.76985,1.31185],[103.76952,1.31183],[103.76932,1.31182],[103.76902,1.31183],[103.76873,1.31185],[103.76847,1.31188],[103.76826,1.31192],[103.768,1.312],[103.7677,1.31211],[103.76741,1.31224],[103.76719,1.31236],[103.767,1.31248],[103.76679,1.31265],[103.76662,1.31279],[103.76641,1.313],[103.76621,1.31321],[103.76603,1.31343],[103.76587,1.31366],[103.76572,1.31389],[103.76557,1.31416],[103.76545,1.31441],[103.765,1.31543],[103.76485,1.31577],[103.76454,1.31661],[103.76446,1.3168],[103.76436,1.317],[103.76414,1.31735],[103.76349,1.31832],[103.76233,1.31997],[103.76164,1.32104],[103.76142,1.32144],[103.7612,1.32188],[103.76082,1.32268],[103.76009,1.32431],[103.75995,1.32461],[103.75977,1.32496],[103.75959,1.32527],[103.75948,1.32543],[103.75925,1.3257],[103.75906,1.32589],[103.75877,1.32611],[103.7586,1.32622],[103.75843,1.32632],[103.75807,1.32649],[103.75767,1.32664],[103.75705,1.32678],[103.75517,1.32719],[103.75482,1.32728],[103.75351,1.32764],[103.75321,1.32775],[103.75256,1.328],[103.75229,1.32809],[103.75215,1.32812],[103.75162,1.32822],[103.75119,1.32826],[103.75081,1.32827],[103.75004,1.32824],[103.74966,1.32826],[103.7494,1.32829],[103.74909,1.32835],[103.74887,1.3284],[103.74867,1.32846],[103.74827,1.32862],[103.74742,1.32904],[103.74694,1.32925],[103.74668,1.32937],[103.74592,1.32977],[103.74538,1.33003],[103.74483,1.33031],[103.74397,1.33077],[103.74375,1.3309],[103.74353,1.33105],[103.74327,1.33128],[103.74299,1.33157],[103.74281,1.3318],[103.74262,1.33212],[103.74134,1.33439],[103.74062,1.33574],[103.74043,1.33608],[103.74028,1.33631],[103.74012,1.33653],[103.73995,1.33674],[103.73979,1.33689],[103.73941,1.33722],[103.73894,1.33761],[103.73777,1.33853],[103.73714,1.33901],[103.73547,1.34026],[103.73475,1.34078],[103.73418,1.34118],[103.73325,1.34179],[103.7324,1.34244],[103.73149,1.34309],[103.73116,1.34331],[103.73082,1.3435],[103.73045,1.34366],[103.72998,1.34382],[103.72974,1.34389],[103.72952,1.34394],[103.72931,1.34398],[103.72909,1.344],[103.72853,1.34402],[103.72733,1.34403],[103.72706,1.34404],[103.72685,1.34407],[103.72652,1.34414],[103.72542,1.34444],[103.72481,1.3446],[103.72446,1.34467],[103.72414,1.34472],[103.72384,1.34474],[103.72346,1.34473],[103.72314,1.34471],[103.72267,1.34464],[103.72232,1.34456],[103.72135,1.34432],[103.71995,1.34399],[103.71931,1.34382],[103.719,1.34373],[103.71848,1.34356],[103.71711,1.34307],[103.71177,1.34113],[103.71029,1.34057],[103.71,1.34044],[103.70929,1.3401],[103.70817,1.33954],[103.70727,1.33907],[103.7068,1.33885],[103.7063,1.33865],[103.70521,1.33824],[103.70447,1.338],[103.70368,1.33777],[103.70336,1.33769],[103.70305,1.33764],[103.70272,1.3376],[103.70241,1.33759],[103.69986,1.33756],[103.69819,1.33752],[103.69628,1.33751],[103.6956,1.33749],[103.6953,1.33746],[103.69456,1.33733],[103.69416,1.33723],[103.69382,1.33711],[103.69352,1.33698],[103.69327,1.33685],[103.69294,1.33662],[103.69264,1.33637],[103.69251,1.33624],[103.69235,1.33607],[103.69126,1.33477],[103.69064,1.33395],[103.68889,1.33161],[103.68871,1.33134],[103.6885,1.33099],[103.68836,1.33068],[103.68826,1.33043],[103.68803,1.32971],[103.68796,1.32953],[103.68784,1.3293],[103.68763,1.32898],[103.68745,1.32874],[103.68729,1.32858],[103.68699,1.32834],[103.68685,1.32824],[103.68666,1.32813],[103.68632,1.32796],[103.68615,1.3279],[103.68595,1.32784],[103.68572,1.32778],[103.68556,1.32776],[103.6852,1.32772],[103.68417,1.32771],[103.68049,1.3277],[103.67894,1.32766],[103.67684,1.32768],[103.67612,1.32767],[103.67535,1.32763],[103.67004,1.32727],[103.66885,1.32718],[103.66849,1.32713],[103.66824,1.32709],[103.66771,1.32697],[103.66717,1.32687],[103.66695,1.32681],[103.66666,1.32671],[103.66641,1.32658],[103.66616,1.32641],[103.66593,1.32621],[103.66568,1.32594],[103.66539,1.32556],[103.66493,1.32491],[103.66445,1.32421],[103.66338,1.32258],[103.66322,1.32237],[103.66264,1.32169],[103.66162,1.32056],[103.66102,1.31991],[103.65994,1.31876],[103.65813,1.31698],[103.65764,1.31652],[103.65744,1.31635],[103.65715,1.3161],[103.65706,1.31604],[103.65693,1.31598],[103.65682,1.31593],[103.65665,1.31588],[103.65625,1.31582],[103.65582,1.31578],[103.65531,1.3158],[103.65474,1.31588],[103.65463,1.31592],[103.65449,1.31597],[103.65439,1.31603],[103.6543,1.31612],[103.65267,1.31761],[103.6483,1.32168],[103.64105,1.32858],[103.64087,1.32875],[103.64051,1.32905],[103.64015,1.32938],[103.63772,1.33168],[103.63638,1.33293],[103.636,1.3333],[103.63585,1.33348],[103.63571,1.33368],[103.63553,1.33399],[103.63541,1.33425],[103.63531,1.33454],[103.63525,1.33485],[103.63521,1.33517],[103.63519,1.3355],[103.63521,1.33583],[103.63524,1.33603],[103.63529,1.33627],[103.63535,1.33651],[103.63539,1.33664],[103.63663,1.34012]],[[103.94656,1.32714],[103.94773,1.32758],[103.94952,1.32829],[103.95004,1.3285],[103.95029,1.32863],[103.95117,1.32914],[103.95157,1.32936],[103.95177,1.32945],[103.9525,1.32976],[103.95288,1.32993],[103.95363,1.3303],[103.95397,1.33045],[103.95466,1.33075],[103.95526,1.33099],[103.9556,1.33112],[103.95593,1.33122],[103.95731,1.33155],[103.95852,1.33186],[103.95876,1.33193],[103.95906,1.33205],[103.95926,1.33214],[103.95943,1.33223],[103.95964,1.33235],[103.95989,1.33251],[103.96002,1.3326],[103.96017,1.33272],[103.96049,1.33301],[103.96076,1.33329],[103.96091,1.33348],[103.96101,1.3336],[103.96316,1.33705],[103.9643,1.33885],[103.96459,1.33929],[103.96494,1.33979],[103.96534,1.34034],[103.96559,1.34065],[103.96581,1.3409],[103.96601,1.3411],[103.9662,1.34124],[103.96641,1.34138],[103.96678,1.34159],[103.96706,1.34171],[103.96743,1.34187],[103.96819,1.34217],[103.9692,1.34257],[103.96954,1.34271],[103.96987,1.34287],[103.97018,1.34303],[103.97047,1.3432],[103.97074,1.34337],[103.97099,1.34355],[103.97122,1.34374],[103.97143,1.34393],[103.97165,1.34416],[103.97188,1.34441],[103.97211,1.34468],[103.97234,1.34499],[103.97259,1.34533],[103.97283,1.34569],[103.97309,1.34608],[103.97335,1.3465],[103.97363,1.34701],[103.97394,1.34762],[103.97427,1.34832],[103.97462,1.34911],[103.975,1.34999],[103.9754,1.35097],[103.97583,1.35204],[103.97731,1.35586],[103.97794,1.35746],[103.97803,1.35762],[103.97814,1.35779],[103.97827,1.35796],[103.97841,1.35814],[103.97857,1.35832],[103.97875,1.35849],[103.979,1.3587],[103.97914,1.35879],[103.97929,1.35888],[103.97946,1.35896],[103.97963,1.35904],[103.98002,1.35917],[103.98023,1.35922],[103.98054,1.35928],[103.98108,1.35936],[103.98144,1.35939],[103.98181,1.3594],[103.98237,1.35941],[103.98264,1.3594],[103.98287,1.35937],[103.98305,1.35934],[103.9833,1.35928],[103.98344,1.35924],[103.98379,1.35912],[103.98528,1.35857],[103.98857,1.35734]]]}},{"type":"Feature","properties":{"line":"NE","name":"North East Line"},"geometry":{"type":"LineString","coordinates":[[103.82248,1.26528],[103.82363,1.26549],[103.82413,1.26559],[103.82461,1.26573],[103.82484,1.2658],[103.82529,1.26597],[103.82551,1.26606],[103.82575,1.2662],[103.82603,1.26639],[103.82633,1.26662],[103.82667,1.2669],[103.82703,1.26722],[103.82742,1.26759],[103.82784,1.268],[103.82872,1.2689],[103.82988,1.27015],[103.83056,1.27091],[103.83169,1.27223],[103.83241,1.27305],[103.83496,1.27583],[103.83523,1.27612],[103.8355,1.27638],[103.83575,1.27663],[103.836,1.27684],[103.83624,1.27704],[103.83647,1.27721],[103.83668,1.27736],[103.83689,1.27749],[103.83712,1.27764],[103.83736,1.27782],[103.83761,1.27803],[103.83788,1.27826],[103.83846,1.27881],[103.83877,1.27913],[103.83944,1.27985],[103.84019,1.28066],[103.84144,1.28206],[103.8428,1.28364],[103.844,1.28504],[103.84499,1.28622],[103.84575,1.28715],[103.8461,1.28761],[103.84634,1.28795],[103.84641,1.28807],[103.84675,1.28876],[103.84682,1.28892],[103.84692,1.28926],[103.84701,1.28971],[103.84707,1.29002],[103.84711,1.29033],[103.84714,1.29079],[103.84714,1.29108],[103.84714,1.29123],[103.8471,1.2915],[103.84708,1.29164],[103.84702,1.2919],[103.84697,1.29202],[103.84691,1.29218],[103.84672,1.2926],[103.84626,1.29348],[103.84546,1.29493],[103.84516,1.2955],[103.84495,1.29595],[103.84483,1.29627],[103.84474,1.29656],[103.84467,1.29685],[103.84465,1.29699],[103.84462,1.29727],[103.84462,1.29755],[103.84464,1.29781],[103.8447,1.29806],[103.84473,1.29817],[103.845,1.29878],[103.84512,1.29908],[103.8453,1.2996],[103.84541,1.29986],[103.84557,1.30019],[103.84606,1.30109],[103.84675,1.30229],[103.84976,1.30736],[103.84991,1.30759],[103.85037,1.30821],[103.85104,1.30905],[103.8519,1.3101],[103.85241,1.31071],[103.85291,1.31128],[103.85341,1.31183],[103.85389,1.31235],[103.85437,1.31284],[103.85484,1.3133],[103.85531,1.31372],[103.85576,1.31413],[103.85661,1.31483],[103.85728,1.31537],[103.85777,1.31576],[103.85809,1.31598],[103.85827,1.3161],[103.85847,1.31623],[103.85881,1.31649],[103.85906,1.31669],[103.85921,1.31683],[103.85937,1.31699],[103.85954,1.31719],[103.85993,1.31767],[103.86015,1.31795],[103.86093,1.319],[103.86126,1.31943],[103.86204,1.3204],[103.86297,1.32153],[103.86552,1.32456],[103.86689,1.32623],[103.86774,1.3273],[103.86813,1.32784],[103.86829,1.32808],[103.86841,1.32831],[103.86851,1.32854],[103.86863,1.3289],[103.86876,1.32947],[103.869,1.33072],[103.86913,1.3313],[103.86931,1.332],[103.86985,1.33404],[103.87011,1.33506],[103.8703,1.33585],[103.87044,1.33662],[103.87052,1.33718],[103.8706,1.33778],[103.87063,1.3381],[103.87069,1.33882],[103.8707,1.33924],[103.87072,1.34017],[103.87072,1.34068],[103.87071,1.3418],[103.87071,1.34235],[103.87073,1.34286],[103.87075,1.34333],[103.8708,1.34378],[103.87085,1.34418],[103.87092,1.34455],[103.871,1.34489],[103.8712,1.34549],[103.87141,1.34606],[103.87164,1.3466],[103.87176,1.34686],[103.87202,1.34736],[103.8723,1.34783],[103.87259,1.34828],[103.87289,1.34871],[103.87305,1.34891],[103.87355,1.34951],[103.8741,1.35013],[103.87471,1.35075],[103.8755,1.35149],[103.87676,1.35265],[103.88188,1.35728],[103.88494,1.36006],[103.88671,1.3617],[103.88828,1.36315],[103.88896,1.3638],[103.88955,1.36439],[103.89007,1.36492],[103.8905,1.36539],[103.89086,1.36581],[103.89113,1.36616],[103.89133,1.36646],[103.89155,1.36695],[103.89165,1.36719],[103.89183,1.36769],[103.89198,1.36821],[103.89205,1.36847],[103.89218,1.36901],[103.89241,1.37009],[103.89257,1.37093],[103.89262,1.37135],[103.89267,1.3719],[103.89272,1.3726],[103.8928,1.37441],[103.89288,1.37678],[103.89292,1.37818],[103.89297,1.37947],[103.89303,1.38065],[103.8931,1.38173],[103.89318,1.3827],[103.89327,1.38356],[103.89337,1.38432],[103.89348,1.38498],[103.89374,1.38607],[103.894,1.38712],[103.89429,1.38815],[103.89459,1.38915],[103.89491,1.39011],[103.89508,1.3906],[103.89544,1.39156],[103.89583,1.39251],[103.89624,1.39346],[103.89683,1.3947],[103.89766,1.39634],[103.89871,1.39838],[103.89933,1.39955],[103.90333,1.40708],[103.90369,1.4078],[103.90383,1.40811],[103.90388,1.40821],[103.90392,1.40836],[103.90397,1.40857],[103.904,1.40872],[103.9042,1.41046],[103.90426,1.41087],[103.90433,1.41122],[103.90441,1.4115],[103.90454,1.41186],[103.90465,1.41209],[103.90486,1.41244],[103.90502,1.41267],[103.90525,1.41297],[103.9054,1.41313],[103.90556,1.41327],[103.90572,1.4134],[103.9059,1.41353],[103.9061,1.41364],[103.90641,1.41381],[103.90663,1.41391],[103.90696,1.41404],[103.9075,1.41422],[103.90847,1.4145],[103.91033,1.41502]]}},{"type":"Feature","properties":{"line":"NS","name":"North South Line"},"geometry":{"type":"LineString","coordinates":[[103.74223,1.33308],[103.74112,1.33511],[103.74094,1.3355],[103.7409,1.3356],[103.74086,1.33573],[103.74082,1.33594],[103.74081,1.33613],[103.7408,1.33649],[103.74082,1.33677],[103.74085,1.33694],[103.74092,1.33724],[103.74098,1.33741],[103.7411,1.33766],[103.74121,1.33787],[103.74136,1.33809],[103.74158,1.33837],[103.74213,1.33907],[103.74345,1.3409],[103.74488,1.34282],[103.74663,1.34513],[103.74743,1.3462],[103.74851,1.34768],[103.74888,1.34821],[103.74987,1.34955],[103.75021,1.35],[103.75063,1.35051],[103.7514,1.35151],[103.75167,1.35192],[103.75174,1.35205],[103.7518,1.35217],[103.75186,1.35233],[103.7519,1.35247],[103.75193,1.35261],[103.75194,1.35277],[103.75198,1.35363],[103.75198,1.35501],[103.75188,1.35657],[103.75178,1.35789],[103.75164,1.36171],[103.75155,1.36425],[103.7515,1.36508],[103.75146,1.36557],[103.7514,1.36587],[103.75128,1.36627],[103.75123,1.36641],[103.75116,1.36657],[103.75105,1.36677],[103.75094,1.36696],[103.75076,1.36721],[103.75051,1.36751],[103.75033,1.36768],[103.75011,1.36788],[103.74865,1.36917],[103.74687,1.37076],[103.74631,1.37127],[103.74593,1.37165],[103.74569,1.37193],[103.74534,1.37236],[103.74507,1.37274],[103.74475,1.37326],[103.74449,1.37374],[103.74424,1.37428],[103.74414,1.37454],[103.74406,1.37478],[103.74385,1.37551],[103.74368,1.37624],[103.7436,1.37677],[103.74354,1.37737],[103.74352,1.37763],[103.74351,1.37801],[103.74352,1.37826],[103.74354,1.37854],[103.74359,1.37887],[103.74385,1.38049],[103.74422,1.38247],[103.74428,1.38291],[103.74431,1.38327],[103.74433,1.38363],[103.74432,1.38384],[103.74419,1.38633],[103.74418,1.38663],[103.74417,1.38737],[103.74409,1.38936],[103.7441,1.38972],[103.74412,1.39002],[103.74416,1.39032],[103.74422,1.39067],[103.74434,1.39115],[103.74447,1.39154],[103.74467,1.39202],[103.74485,1.3924],[103.74503,1.3927],[103.74606,1.3943],[103.74647,1.39493],[103.74668,1.39533],[103.74678,1.39556],[103.74688,1.3958],[103.74698,1.39612],[103.74753,1.39818],[103.74773,1.39884],[103.748,1.39962],[103.74812,1.39999],[103.74923,1.40394],[103.74942,1.40466],[103.7495,1.40502],[103.74962,1.40565],[103.74972,1.40624],[103.74976,1.40664],[103.74976,1.40702],[103.74973,1.40765],[103.74968,1.40813],[103.74841,1.41532],[103.74823,1.41642],[103.7482,1.41667],[103.74819,1.41691],[103.74819,1.41731],[103.74823,1.4177],[103.74831,1.41819],[103.74837,1.41843],[103.74842,1.41861],[103.74848,1.41879],[103.74858,1.41903],[103.74876,1.41943],[103.74895,1.41977],[103.74921,1.42016],[103.7494,1.42039],[103.74969,1.4207],[103.74998,1.42097],[103.75023,1.42117],[103.75058,1.4214],[103.75091,1.42159],[103.75119,1.42172],[103.75157,1.42187],[103.75188,1.42197],[103.75225,1.42206],[103.75732,1.42311],[103.75794,1.42325],[103.75815,1.42332],[103.75848,1.42343],[103.75948,1.42379],[103.76006,1.42403],[103.76024,1.42412],[103.76043,1.42423],[103.76074,1.42442],[103.76131,1.42481],[103.76261,1.42572],[103.76449,1.427],[103.76488,1.42729],[103.76514,1.4275],[103.7653,1.42765],[103.76537,1.42773],[103.7658,1.42833],[103.76633,1.42912],[103.76668,1.42975],[103.76687,1.43008],[103.7671,1.4304],[103.76731,1.43066],[103.76746,1.43081],[103.76774,1.43106],[103.76796,1.43124],[103.76815,1.43138],[103.76833,1.4315],[103.76862,1.43165],[103.76883,1.43175],[103.76911,1.43187],[103.7694,1.43196],[103.76958,1.43201],[103.7712,1.4324],[103.77194,1.43256],[103.77218,1.4326],[103.77242,1.43262],[103.77287,1.43264],[103.7751,1.43263],[103.77545,1.43261],[103.77611,1.43256],[103.77646,1.43255],[103.77784,1.43254],[103.77822,1.43255],[103.77861,1.43258],[103.77894,1.43263],[103.77923,1.43271],[103.77959,1.43283],[103.77994,1.43297],[103.78027,1.43314],[103.78054,1.4333],[103.78088,1.43354],[103.78098,1.43362],[103.78165,1.43423],[103.78277,1.43529],[103.78315,1.43563],[103.78345,1.43584],[103.78376,1.43603],[103.78398,1.43614],[103.78439,1.4363],[103.78789,1.4376],[103.78932,1.43802],[103.79034,1.43838],[103.79086,1.43854],[103.79117,1.43862],[103.79175,1.43873],[103.79214,1.43879],[103.79289,1.43883],[103.79641,1.439],[103.79666,1.43903],[103.79694,1.43906],[103.79718,1.43911],[103.79741,1.43917],[103.7978,1.43929],[103.79809,1.43941],[103.79892,1.43979],[103.80141,1.44091],[103.80391,1.44201],[103.80454,1.4423],[103.8052,1.44263],[103.8055,1.44281],[103.80584,1.44304],[103.80601,1.44317],[103.80627,1.44339],[103.80709,1.44416],[103.80757,1.44459],[103.80784,1.44486],[103.80822,1.44528],[103.80841,1.44548],[103.80863,1.44568],[103.80898,1.44598],[103.80915,1.4461],[103.80934,1.44624],[103.8097,1.44645],[103.81033,1.44676],[103.8106,1.44688],[103.8108,1.44695],[103.81101,1.44702],[103.81129,1.4471],[103.81268,1.44744],[103.81583,1.44817],[103.81825,1.44875],[103.8192,1.44893],[103.82103,1.4494],[103.82125,1.44945],[103.82143,1.44948],[103.82188,1.44954],[103.82237,1.44957],[103.82273,1.44957],[103.82314,1.44954],[103.82357,1.44946],[103.82388,1.44938],[103.82434,1.44921],[103.8247,1.44905],[103.82496,1.4489],[103.82533,1.44865],[103.82559,1.44845],[103.82585,1.44823],[103.82703,1.44714],[103.82732,1.44682],[103.82766,1.4464],[103.82782,1.44617],[103.828,1.4459],[103.83047,1.44184],[103.83243,1.43869],[103.83272,1.43821],[103.83315,1.43743],[103.83361,1.43664],[103.83386,1.4362],[103.83403,1.43585],[103.83416,1.4355],[103.83429,1.43508],[103.83464,1.4337],[103.83478,1.43313],[103.83504,1.43193],[103.8351,1.43157],[103.83513,1.4312],[103.83515,1.4308],[103.83514,1.43029],[103.83506,1.42841],[103.83503,1.42746],[103.83484,1.42387],[103.83474,1.42166],[103.8347,1.4211],[103.83467,1.42092],[103.83463,1.42071],[103.83456,1.42044],[103.8345,1.42026],[103.83443,1.42006],[103.83433,1.41983],[103.83334,1.41782],[103.83226,1.41567],[103.83123,1.41361],[103.83086,1.41293],[103.83066,1.41258],[103.83034,1.41212],[103.82992,1.41156],[103.82968,1.41119],[103.82958,1.41101],[103.82946,1.41077],[103.82937,1.41057],[103.82931,1.41041],[103.82921,1.41004],[103.82918,1.40992],[103.82916,1.40976],[103.82914,1.40948],[103.82913,1.40851],[103.82912,1.40829],[103.82909,1.40801],[103.82903,1.40768],[103.82895,1.4074],[103.82886,1.40717],[103.82819,1.40565],[103.82811,1.40543],[103.82801,1.40512],[103.82794,1.40485],[103.82789,1.40459],[103.82784,1.40423],[103.82781,1.40396],[103.8278,1.40368],[103.82778,1.40272],[103.82779,1.40244],[103.82784,1.40196],[103.82793,1.40145],[103.82803,1.40101],[103.82816,1.40057],[103.82837,1.39998],[103.82846,1.39976],[103.82856,1.39954],[103.82869,1.39929],[103.82887,1.39896],[103.82913,1.39853],[103.8293,1.39829],[103.82947,1.39806],[103.82973,1.39773],[103.82992,1.39751],[103.83005,1.39737],[103.83025,1.39717],[103.83071,1.39675],[103.83098,1.39653],[103.83123,1.39634],[103.83175,1.39599],[103.83566,1.39352],[103.83835,1.39183],[103.8392,1.39128],[103.83968,1.39097],[103.83991,1.3908],[103.84008,1.39066],[103.84025,1.39052],[103.84045,1.39033],[103.84063,1.39012],[103.8408,1.38992],[103.84095,1.38972],[103.84111,1.38949],[103.84123,1.3893],[103.84135,1.3891],[103.84147,1.38885],[103.84155,1.38867],[103.84339,1.38403],[103.84357,1.38362],[103.84377,1.38325],[103.84388,1.38308],[103.84398,1.38294],[103.84414,1.38274],[103.84431,1.38256],[103.84654,1.38023],[103.84683,1.37989],[103.84702,1.37965],[103.84722,1.37937],[103.84744,1.37901],[103.84755,1.3788],[103.84762,1.37864],[103.84778,1.37816],[103.84786,1.37782],[103.84793,1.37748],[103.8485,1.37297],[103.8486,1.37236],[103.84865,1.37216],[103.84872,1.37193],[103.84885,1.37159],[103.84906,1.37117],[103.84931,1.37071],[103.84996,1.36955],[103.85019,1.36912],[103.85034,1.36877],[103.85058,1.36814],[103.85062,1.36806],[103.85239,1.36489],[103.85294,1.36387],[103.85299,1.36376],[103.85305,1.3636],[103.85312,1.36339],[103.85317,1.3632],[103.85322,1.36297],[103.85325,1.36261],[103.85326,1.36221],[103.85322,1.36187],[103.85319,1.36164],[103.85315,1.36149],[103.85305,1.36115],[103.85291,1.36079],[103.85284,1.36064],[103.85228,1.35949],[103.85203,1.35894],[103.85177,1.35843],[103.85161,1.35814],[103.85131,1.3577],[103.85089,1.35714],[103.85031,1.35644],[103.8501,1.35613],[103.84987,1.35576],[103.84968,1.35541],[103.84925,1.35466],[103.84907,1.3543],[103.84892,1.35393],[103.84878,1.35351],[103.84866,1.35302],[103.84838,1.35175],[103.84784,1.34925],[103.84768,1.34854],[103.84722,1.34634],[103.84714,1.34587],[103.84706,1.34541],[103.847,1.34495],[103.84695,1.3445],[103.84691,1.34405],[103.84688,1.34361],[103.84686,1.34317],[103.84683,1.34143],[103.84683,1.34009],[103.84684,1.33984],[103.84688,1.33936],[103.84701,1.33808],[103.84706,1.33719],[103.84714,1.33613],[103.84724,1.33497],[103.84732,1.33424],[103.84739,1.33364],[103.84746,1.33318],[103.8475,1.33301],[103.84774,1.33197],[103.84781,1.33158],[103.84785,1.33124],[103.84787,1.33101],[103.84787,1.33077],[103.84787,1.33044],[103.84786,1.33022],[103.84783,1.33001],[103.8478,1.32981],[103.84775,1.32963],[103.84743,1.32865],[103.84645,1.32547],[103.84619,1.32471],[103.84594,1.32401],[103.84569,1.32338],[103.84544,1.32281],[103.84519,1.32231],[103.84494,1.32186],[103.84469,1.32149],[103.8442,1.32086],[103.8435,1.32],[103.84305,1.31947],[103.84263,1.31897],[103.84243,1.31874],[103.84226,1.31851],[103.84211,1.31829],[103.84197,1.31807],[103.84186,1.31787],[103.84177,1.31766],[103.84169,1.31747],[103.84157,1.31708],[103.84134,1.3164],[103.84092,1.31531],[103.8408,1.31504],[103.84066,1.31478],[103.84051,1.31453],[103.84035,1.31431],[103.84017,1.3141],[103.83998,1.3139],[103.83979,1.31373],[103.83867,1.31287],[103.83604,1.31102],[103.83554,1.31065],[103.8351,1.31031],[103.83473,1.30999],[103.8344,1.3097],[103.83414,1.30943],[103.83394,1.30919],[103.83379,1.30898],[103.83327,1.30782],[103.83259,1.30621],[103.83217,1.3052],[103.83207,1.30491],[103.83202,1.30465],[103.832,1.3045],[103.832,1.30442],[103.83207,1.30402],[103.83226,1.30309],[103.8323,1.30298],[103.83238,1.30276],[103.83265,1.30216],[103.8329,1.30167],[103.83299,1.3015],[103.8331,1.30135],[103.83325,1.30116],[103.83343,1.30101],[103.83364,1.30087],[103.8338,1.30078],[103.83398,1.30071],[103.83421,1.30062],[103.83441,1.30055],[103.83499,1.30039],[103.83522,1.30036],[103.83548,1.30036],[103.836,1.30042],[103.83649,1.30056],[103.83663,1.3006],[103.83677,1.30061],[103.83689,1.30061],[103.83702,1.3006],[103.83759,1.30051],[103.83827,1.30038],[103.83906,1.30021],[103.84172,1.2996],[103.84324,1.29923],[103.84559,1.29863],[103.84578,1.29855],[103.84602,1.29843],[103.84632,1.29827],[103.84667,1.29807],[103.84754,1.29754],[103.84864,1.29683],[103.84998,1.29594],[103.85056,1.29553],[103.85076,1.29538],[103.85089,1.29526],[103.8511,1.29503],[103.85131,1.29474],[103.85184,1.29393],[103.85196,1.29377],[103.8521,1.29361],[103.85243,1.29328],[103.85293,1.29275],[103.85313,1.29251],[103.85329,1.29226],[103.85343,1.29199],[103.85353,1.29176],[103.85359,1.29155],[103.85361,1.29142],[103.85362,1.2913],[103.85362,1.29113],[103.8536,1.29101],[103.85358,1.29092],[103.85349,1.29064],[103.85313,1.28965],[103.85266,1.28843],[103.85237,1.28771],[103.85207,1.287],[103.85187,1.2865],[103.85178,1.28625],[103.85172,1.28602],[103.85164,1.28563],[103.85158,1.28509],[103.85154,1.28454],[103.85149,1.2836],[103.85147,1.28308],[103.85147,1.28289],[103.8515,1.28273],[103.85154,1.28265],[103.85186,1.28216],[103.85259,1.28092],[103.85343,1.27953],[103.85392,1.27869],[103.85401,1.27851],[103.8541,1.27831],[103.8542,1.27804],[103.85427,1.27779],[103.8544,1.27712],[103.85465,1.27574],[103.85479,1.27505],[103.85484,1.27489],[103.85493,1.27461],[103.85501,1.27442],[103.85509,1.27425],[103.8552,1.27404],[103.85534,1.27383],[103.85555,1.27353],[103.85568,1.27337],[103.85599,1.27306],[103.85658,1.27251],[103.85741,1.27174],[103.85788,1.27134],[103.85808,1.27118],[103.8584,1.27095],[103.85852,1.27089],[103.85881,1.27078],[103.859,1.27072],[103.85926,1.27067],[103.85968,1.27062],[103.86005,1.2706],[103.86023,1.2706],[103.8605,1.27061],[103.86075,1.27065],[103.86097,1.2707],[103.86115,1.27076],[103.86125,1.2708],[103.86147,1.27092],[103.86183,1.27115],[103.86272,1.27175]]}},{"type":"Feature","properties":{"line":"PG","name":"Punggol LRT (East Loop)"},"geometry":{"type":"MultiLineString","coordinates":[[[103.90134,1.40184],[103.90164,1.40168],[103.90504,1.39999],[103.9053,1.39985],[103.90567,1.39959],[103.90617,1.39923],[103.90646,1.399],[103.90704,1.39849],[103.9078,1.39786],[103.90809,1.39762],[103.90862,1.39721],[103.90954,1.39646],[103.91235,1.39418],[103.91291,1.39372],[103.91332,1.39335],[103.91368,1.39305],[103.91378,1.39297],[103.91392,1.39289],[103.91403,1.39284],[103.91413,1.3928],[103.91426,1.39278],[103.91441,1.39277],[103.91453,1.39278],[103.91467,1.39282],[103.91478,1.39287],[103.91488,1.39293],[103.915,1.39303],[103.91509,1.39312],[103.9155,1.39367],[103.91591,1.39428],[103.91632,1.39486],[103.91695,1.39569],[103.91766,1.39668],[103.91806,1.39725],[103.91813,1.39738],[103.91818,1.39752],[103.91821,1.39773],[103.91821,1.39789],[103.91818,1.39804],[103.91813,1.39818],[103.91805,1.39832],[103.91793,1.39846],[103.9178,1.39859],[103.91743,1.39886],[103.91676,1.39931],[103.91614,1.39976],[103.91514,1.40052],[103.91424,1.40118],[103.91345,1.40173],[103.9129,1.40211],[103.9122,1.4026],[103.91142,1.40319],[103.91116,1.40339],[103.90874,1.4051],[103.90757,1.40595],[103.90697,1.40635],[103.90634,1.40675],[103.90596,1.40697],[103.90544,1.40723],[103.90496,1.40746],[103.90481,1.40751],[103.90465,1.40755],[103.90448,1.40757],[103.9043,1.40756],[103.90416,1.40753],[103.90401,1.40747],[103.90388,1.4074],[103.90375,1.4073],[103.90363,1.40719],[103.90343,1.40697]],[[103.90343,1.40697],[103.9031,1.40637],[103.90292,1.40603],[103.90281,1.40578],[103.9027,1.40545],[103.90262,1.40531],[103.90251,1.40509]],[[103.90251,1.40509],[103.90238,1.40487],[103.90231,1.40476],[103.90203,1.40438],[103.90175,1.40392]],[[103.90175,1.40392],[103.90111,1.40274],[103.90107,1.40264],[103.90104,1.40253],[103.90103,1.40243],[103.90103,1.40233],[103.90105,1.40225],[103.90108,1.40215],[103.90113,1.40206],[103.90118,1.40198],[103.90125,1.40191],[103.90134,1.40184]]]}},{"type":"Feature","properties":{"line":"PG","name":"Punggol LRT (West Loop)"},"geometry":{"type":"LineString","coordinates":[[103.90235,1.40526],[103.90138,1.40331],[103.9012,1.40302],[103.90101,1.40276],[103.90086,1.40262],[103.90079,1.40256],[103.90072,1.4025],[103.90058,1.40241],[103.90044,1.40236],[103.9003,1.40233],[103.9002,1.40234],[103.90007,1.40236],[103.8997,1.40245],[103.8989,1.4027],[103.89826,1.40291],[103.89777,1.4031],[103.89741,1.40325],[103.89729,1.40332],[103.8972,1.40337],[103.89715,1.40342],[103.89706,1.40352],[103.89702,1.40358],[103.89697,1.4037],[103.89695,1.40377],[103.89693,1.40391],[103.89694,1.40408],[103.89697,1.4043],[103.89705,1.4047],[103.89719,1.40519],[103.89737,1.40574],[103.89758,1.40637],[103.89782,1.40699],[103.89798,1.40738],[103.89815,1.40774],[103.89859,1.40862],[103.89931,1.40998],[103.90022,1.41166],[103.90058,1.41231],[103.90064,1.41244],[103.90079,1.41278],[103.90095,1.41322],[103.90122,1.41407],[103.9014,1.41461],[103.90157,1.41505],[103.90166,1.41523],[103.90174,1.41539],[103.90183,1.41551],[103.90214,1.41589],[103.90235,1.41613],[103.90256,1.41632],[103.90273,1.41646],[103.90305,1.41669],[103.90343,1.41693],[103.90377,1.41713],[103.90404,1.41727],[103.9042,1.41733],[103.90437,1.41738],[103.90454,1.41742],[103.90483,1.41745],[103.90502,1.41744],[103.9052,1.41742],[103.90539,1.41738],[103.90557,1.41733],[103.90584,1.41722],[103.90613,1.4171],[103.90642,1.41696],[103.907,1.41667],[103.90714,1.41658],[103.90727,1.41648],[103.90738,1.41636],[103.90753,1.41617],[103.90765,1.41598],[103.9077,1.41586],[103.90776,1.4157],[103.9078,1.41549],[103.9078,1.41535],[103.90777,1.41518],[103.90767,1.41486],[103.90747,1.41439],[103.90703,1.41346],[103.90677,1.41297],[103.90628,1.41209],[103.90517,1.41022],[103.90437,1.40882],[103.90235,1.40526]]}},{"type":"Feature","properties":{"line":"SK","name":"Sengkang LRT (East Loop)"},"geometry":{"type":"LineString","coordinates":[[103.89529,1.39133],[103.8957,1.39246],[103.89589,1.39295],[103.89621,1.39367],[103.89656,1.39437],[103.89687,1.3949],[103.89695,1.39502],[103.89709,1.39519],[103.89714,1.39523],[103.89727,1.39527],[103.8974,1.39529],[103.89748,1.39529],[103.89771,1.39526],[103.89801,1.3952],[103.89858,1.39508],[103.8991,1.39494],[103.8997,1.39475],[103.90136,1.39421],[103.9024,1.39385],[103.90301,1.39361],[103.90352,1.39337],[103.90374,1.39325],[103.90394,1.39314],[103.90428,1.3929],[103.90462,1.39266],[103.9051,1.39227],[103.90555,1.39186],[103.90604,1.39138],[103.90633,1.39107],[103.90648,1.39087],[103.90654,1.39076],[103.90664,1.39053],[103.90672,1.3903],[103.90674,1.39017],[103.90674,1.39004],[103.90672,1.38989],[103.90667,1.38974],[103.90659,1.38957],[103.9065,1.38939],[103.90637,1.3892],[103.90623,1.38899],[103.9057,1.38835],[103.90511,1.3877],[103.90425,1.38682],[103.90383,1.38634],[103.90343,1.38582],[103.90304,1.38525],[103.90285,1.38496],[103.90253,1.38441],[103.90239,1.38416],[103.90217,1.3837],[103.90201,1.3833],[103.9019,1.38295],[103.90174,1.38234],[103.90165,1.38196],[103.90159,1.38176],[103.90155,1.38167],[103.90151,1.3816],[103.90146,1.38154],[103.9014,1.38149],[103.90134,1.38145],[103.90128,1.38143],[103.90121,1.38141],[103.90104,1.3814],[103.90086,1.38143],[103.90064,1.38149],[103.90029,1.38164],[103.89993,1.38181],[103.89958,1.382],[103.8993,1.38219],[103.89897,1.38246],[103.89878,1.38263],[103.89837,1.38302],[103.89728,1.38411],[103.89615,1.38529],[103.89572,1.38571],[103.89539,1.38598],[103.8951,1.38619],[103.89491,1.38629],[103.89457,1.38645],[103.89442,1.38654],[103.89435,1.38658],[103.89423,1.38668],[103.89414,1.38679],[103.8941,1.38688],[103.89409,1.38699],[103.89409,1.38713],[103.8941,1.3873],[103.89413,1.3875],[103.89423,1.38797],[103.89446,1.3888],[103.89471,1.38961],[103.89488,1.39014],[103.89529,1.39133]]}},{"type":"Feature","properties":{"line":"SK","name":"Sengkang LRT (West Loop)"},"geometry":{"type":"LineString","coordinates":[[103.89529,1.39133],[103.89553,1.39215],[103.89573,1.39274],[103.89584,1.39303],[103.89607,1.39356],[103.89635,1.39416],[103.89649,1.39447],[103.89658,1.3947],[103.89662,1.3949],[103.89663,1.39501],[103.89662,1.39506],[103.8966,1.39514],[103.89654,1.39527],[103.89648,1.39535],[103.89642,1.39542],[103.89635,1.39547],[103.89624,1.39552],[103.89592,1.39565],[103.89517,1.39589],[103.89394,1.39624],[103.8929,1.39653],[103.89243,1.39666],[103.89161,1.39683],[103.89068,1.39698],[103.88922,1.39718],[103.88644,1.39756],[103.88397,1.39787],[103.88204,1.3981],[103.88077,1.39824],[103.88001,1.39831],[103.87722,1.39854],[103.87658,1.39857],[103.87643,1.39857],[103.87621,1.39856],[103.87614,1.39854],[103.8761,1.39852],[103.87599,1.39844],[103.87593,1.39838],[103.87587,1.3983],[103.87581,1.39815],[103.87573,1.39789],[103.8757,1.39772],[103.87567,1.39752],[103.87562,1.39694],[103.8756,1.39638],[103.87561,1.39602],[103.87565,1.39567],[103.87568,1.39551],[103.8758,1.39503],[103.87583,1.39487],[103.87586,1.39453],[103.87587,1.39418],[103.8758,1.39298],[103.8758,1.39288],[103.87581,1.39278],[103.87585,1.39265],[103.87597,1.39243],[103.87624,1.39201],[103.87649,1.39165],[103.87661,1.3915],[103.87673,1.3914],[103.87683,1.39133],[103.87692,1.39128],[103.87706,1.39126],[103.87715,1.39127],[103.87729,1.39131],[103.87758,1.39141],[103.87853,1.39178],[103.87922,1.39203],[103.87942,1.3921],[103.87961,1.39214],[103.87973,1.39215],[103.87986,1.39215],[103.88058,1.39212],[103.88079,1.39211],[103.88116,1.39206],[103.88148,1.39197],[103.88182,1.39185],[103.88209,1.39174],[103.88236,1.39161],[103.88263,1.39146],[103.88317,1.39112],[103.88433,1.39037],[103.8852,1.38983],[103.8879,1.38818],[103.88967,1.38707],[103.88988,1.38697],[103.89004,1.38691],[103.89029,1.38683],[103.89057,1.38676],[103.89088,1.38669],[103.89118,1.38664],[103.89137,1.38662],[103.89163,1.38661],[103.89205,1.38663],[103.89272,1.38669],[103.8932,1.38671],[103.89335,1.38673],[103.89346,1.38675],[103.89355,1.3868],[103.89364,1.38687],[103.89371,1.38695],[103.89378,1.38705],[103.89383,1.38715],[103.89395,1.38744],[103.8945,1.38909],[103.89529,1.39133]]}},{"type":"Feature","properties":{"line":"TE","name":"Thomson-East Coast Line"},"geometry":{"type":"LineString","coordinates":[[103.78567,1.44872],[103.78707,1.44605],[103.78795,1.44431],[103.7882,1.44384],[103.78856,1.44323],[103.78883,1.44276],[103.78894,1.44251],[103.78903,1.44227],[103.78909,1.44205],[103.78913,1.44184],[103.78916,1.44157],[103.78915,1.44129],[103.78911,1.4409],[103.78904,1.4406],[103.78896,1.44038],[103.78884,1.44011],[103.78872,1.43992],[103.78833,1.43929],[103.78824,1.43913],[103.78814,1.43892],[103.78806,1.43868],[103.788,1.43846],[103.78797,1.43826],[103.78795,1.43799],[103.78795,1.43775],[103.78797,1.43752],[103.78829,1.43493],[103.78834,1.43448],[103.78834,1.43436],[103.78832,1.43407],[103.78826,1.43365],[103.7882,1.43335],[103.78807,1.4328],[103.788,1.43239],[103.78797,1.43205],[103.78797,1.4319],[103.78798,1.43167],[103.78803,1.43134],[103.78807,1.4311],[103.78814,1.43085],[103.78825,1.43055],[103.78834,1.43037],[103.78841,1.43024],[103.7886,1.42997],[103.78874,1.42977],[103.78889,1.4296],[103.78899,1.4295],[103.78926,1.42927],[103.78942,1.42915],[103.78958,1.42905],[103.78992,1.42886],[103.79029,1.42869],[103.79152,1.42825],[103.79296,1.42766],[103.79416,1.42722],[103.79459,1.42704],[103.79489,1.42689],[103.79536,1.42668],[103.7956,1.42655],[103.79576,1.42643],[103.79598,1.42625],[103.79616,1.42608],[103.79632,1.42591],[103.79661,1.42557],[103.79685,1.42523],[103.79812,1.42336],[103.7987,1.42255],[103.79937,1.42165],[103.8005,1.42018],[103.80157,1.41872],[103.80198,1.41818],[103.8023,1.41782],[103.80267,1.41745],[103.80364,1.41663],[103.80414,1.41619],[103.80452,1.41584],[103.80485,1.41552],[103.80513,1.41521],[103.80555,1.41473],[103.80626,1.41383],[103.80664,1.41331],[103.80675,1.41313],[103.80685,1.41295],[103.80692,1.41277],[103.80699,1.41255],[103.80706,1.41222],[103.80718,1.41125],[103.80722,1.41102],[103.80727,1.41082],[103.80741,1.4104],[103.8077,1.40963],[103.80817,1.40843],[103.80854,1.40757],[103.80866,1.40731],[103.80877,1.4071],[103.80899,1.40674],[103.80933,1.40621],[103.80967,1.40571],[103.80991,1.40538],[103.81082,1.40423],[103.81125,1.40364],[103.81142,1.40341],[103.81159,1.40323],[103.81174,1.4031],[103.81189,1.40298],[103.81205,1.40288],[103.81231,1.40275],[103.81261,1.40262],[103.81295,1.40251],[103.8132,1.40245],[103.81336,1.40243],[103.81358,1.40241],[103.81435,1.40238],[103.81474,1.40235],[103.81516,1.40229],[103.81532,1.40225],[103.81546,1.40221],[103.81564,1.40215],[103.81578,1.40209],[103.81592,1.40202],[103.81611,1.4019],[103.81626,1.4018],[103.81641,1.40169],[103.81654,1.40157],[103.81667,1.40144],[103.81686,1.40122],[103.81697,1.40106],[103.81713,1.4008],[103.81726,1.40053],[103.8174,1.40017],[103.81775,1.39911],[103.818,1.39839],[103.81842,1.3973],[103.81861,1.39684],[103.81872,1.39659],[103.81886,1.3963],[103.81901,1.39605],[103.81918,1.39583],[103.81933,1.39568],[103.81968,1.39535],[103.82038,1.39472],[103.82077,1.39437],[103.82116,1.394],[103.82175,1.39341],[103.82214,1.39304],[103.82252,1.39273],[103.8227,1.39258],[103.82306,1.39233],[103.82324,1.39223],[103.82361,1.39201],[103.82403,1.3918],[103.82448,1.39158],[103.82497,1.39137],[103.82565,1.39105],[103.82713,1.39033],[103.82843,1.38968],[103.83219,1.38778],[103.8338,1.38696],[103.83458,1.38655],[103.83502,1.3863],[103.83539,1.38605],[103.83565,1.38585],[103.83593,1.3856],[103.83702,1.38457],[103.83736,1.38422],[103.83769,1.38382],[103.838,1.3834],[103.83839,1.38282],[103.83884,1.38211],[103.83928,1.3814],[103.83942,1.38117],[103.83955,1.38091],[103.83962,1.38074],[103.83971,1.38047],[103.83978,1.38021],[103.83984,1.37988],[103.83985,1.37966],[103.83985,1.37937],[103.83976,1.37852],[103.83963,1.37735],[103.83955,1.37687],[103.83948,1.37654],[103.83941,1.37632],[103.83932,1.37612],[103.8392,1.37592],[103.83902,1.37566],[103.83893,1.37554],[103.83875,1.37536],[103.83796,1.37464],[103.83781,1.37449],[103.83765,1.3743],[103.83752,1.37413],[103.83738,1.3739],[103.83726,1.37368],[103.83717,1.37338],[103.83708,1.37304],[103.83694,1.37246],[103.83686,1.37212],[103.83678,1.37164],[103.83663,1.37067],[103.83612,1.368],[103.83594,1.36711],[103.83585,1.36669],[103.83578,1.36642],[103.83567,1.36612],[103.83558,1.3659],[103.83543,1.36564],[103.83522,1.36537],[103.83493,1.36504],[103.83463,1.36475],[103.83392,1.3641],[103.83231,1.36267],[103.83014,1.36079],[103.82993,1.36061],[103.82969,1.36037],[103.82958,1.36023],[103.82923,1.35974],[103.82911,1.35953],[103.82897,1.35925],[103.82889,1.35904],[103.82885,1.35886],[103.82882,1.35858],[103.82881,1.35828],[103.82883,1.35804],[103.82888,1.3578],[103.82898,1.35749],[103.82909,1.3573],[103.82928,1.35706],[103.82961,1.35671],[103.82999,1.35632],[103.83039,1.35595],[103.83054,1.35582],[103.83069,1.35572],[103.83116,1.35542],[103.83298,1.35449],[103.83316,1.35438],[103.83338,1.35424],[103.83357,1.35409],[103.83371,1.35397],[103.83414,1.35356],[103.8349,1.35287],[103.83518,1.35259],[103.83538,1.35234],[103.83547,1.3522],[103.83554,1.35205],[103.83564,1.35182],[103.83592,1.35106],[103.836,1.35087],[103.8361,1.35069],[103.83628,1.35043],[103.83708,1.34943],[103.83728,1.34917],[103.83744,1.34893],[103.83765,1.34858],[103.8378,1.34829],[103.83796,1.34796],[103.83813,1.34758],[103.83853,1.34661],[103.83876,1.34601],[103.83886,1.34564],[103.83901,1.34491],[103.83909,1.34444],[103.83917,1.34387],[103.8393,1.3428],[103.83934,1.34216],[103.83937,1.3409],[103.83939,1.34067],[103.83942,1.34051],[103.8395,1.34017],[103.83962,1.33985],[103.83973,1.3396],[103.83995,1.33919],[103.84009,1.33885],[103.84015,1.33863],[103.84018,1.33844],[103.84021,1.33817],[103.84022,1.3379],[103.84034,1.33298],[103.84034,1.33244],[103.84033,1.33192],[103.84031,1.33169],[103.84026,1.33146],[103.84014,1.33114],[103.84,1.33083],[103.83984,1.33056],[103.83966,1.33032],[103.83946,1.33011],[103.83923,1.32991],[103.83897,1.32973],[103.83881,1.32963],[103.83865,1.32956],[103.83843,1.32946],[103.83817,1.32937],[103.83671,1.32896],[103.83603,1.32876],[103.82995,1.32688],[103.82922,1.32664],[103.82898,1.32655],[103.82877,1.32646],[103.8286,1.32637],[103.82844,1.32627],[103.82829,1.32617],[103.82812,1.32603],[103.82795,1.32588],[103.82783,1.32576],[103.82773,1.32564],[103.82764,1.32552],[103.82738,1.32511],[103.82695,1.32435],[103.82641,1.32334],[103.82612,1.32277],[103.82589,1.32227],[103.82571,1.32183],[103.82559,1.32146],[103.82553,1.32121],[103.8255,1.32101],[103.82549,1.32078],[103.82549,1.32054],[103.82552,1.32023],[103.82574,1.31861],[103.82575,1.31845],[103.82575,1.31829],[103.82573,1.318],[103.82566,1.31767],[103.82557,1.31742],[103.82545,1.31714],[103.82528,1.31687],[103.8248,1.31617],[103.82295,1.31357],[103.82278,1.31325],[103.82231,1.31227],[103.82215,1.31201],[103.82198,1.31177],[103.82184,1.31161],[103.82173,1.31148],[103.82156,1.31134],[103.82142,1.31122],[103.82117,1.31105],[103.82032,1.31053],[103.82016,1.31042],[103.82002,1.31032],[103.81983,1.31015],[103.81969,1.31001],[103.81957,1.30988],[103.81944,1.30972],[103.81931,1.30953],[103.81921,1.30934],[103.81913,1.30917],[103.81897,1.30876],[103.81893,1.30863],[103.81889,1.30849],[103.81886,1.30825],[103.81884,1.30805],[103.81883,1.30764],[103.81884,1.30692],[103.81885,1.30611],[103.81887,1.30569],[103.8189,1.3054],[103.81894,1.30515],[103.81901,1.30486],[103.81911,1.30458],[103.81924,1.30429],[103.81937,1.30405],[103.81958,1.30375],[103.81978,1.30352],[103.82007,1.30323],[103.82035,1.30299],[103.82058,1.30283],[103.82087,1.30267],[103.82103,1.3026],[103.8212,1.30253],[103.82146,1.30246],[103.82166,1.30241],[103.82186,1.30237],[103.82201,1.30235],[103.82224,1.30234],[103.8224,1.30234],[103.82282,1.30237],[103.82322,1.30242],[103.82408,1.30259],[103.82499,1.30279],[103.82522,1.30285],[103.82545,1.30293],[103.82566,1.30303],[103.82583,1.30313],[103.82604,1.30328],[103.82621,1.30342],[103.82639,1.30359],[103.82669,1.3039],[103.82691,1.3041],[103.82701,1.30417],[103.82719,1.30428],[103.82741,1.3044],[103.82765,1.30452],[103.82786,1.30461],[103.82798,1.30465],[103.82827,1.3047],[103.82853,1.30472],[103.82875,1.30472],[103.82894,1.30472],[103.82913,1.30469],[103.82931,1.30465],[103.82951,1.30459],[103.82979,1.30448],[103.82998,1.3044],[103.83014,1.30431],[103.83024,1.30424],[103.83035,1.30416],[103.83051,1.30401],[103.83069,1.30383],[103.83082,1.30368],[103.83138,1.30299],[103.8318,1.3025],[103.8324,1.3018],[103.83317,1.30094],[103.83337,1.30072],[103.83356,1.30047],[103.83368,1.30028],[103.83378,1.30011],[103.83383,1.3],[103.8339,1.2998],[103.83394,1.29963],[103.83396,1.29951],[103.83398,1.29932],[103.83399,1.29915],[103.83398,1.29896],[103.83396,1.29864],[103.83391,1.29824],[103.83386,1.29801],[103.8338,1.29776],[103.83348,1.29662],[103.83345,1.29637],[103.83342,1.29598],[103.83342,1.29572],[103.83345,1.2955],[103.83382,1.29366],[103.83389,1.2932],[103.83389,1.29296],[103.83388,1.29279],[103.83371,1.29082],[103.83367,1.29025],[103.83365,1.28928],[103.83364,1.28867],[103.83366,1.28719],[103.83368,1.28676],[103.83369,1.28656],[103.83374,1.28627],[103.83384,1.28586],[103.83394,1.2856],[103.83405,1.2854],[103.83426,1.28511],[103.83463,1.28467],[103.83495,1.28432],[103.83527,1.28402],[103.83549,1.28383],[103.83569,1.28368],[103.8358,1.28361],[103.83604,1.28346],[103.83633,1.28332],[103.83739,1.28284],[103.83768,1.28269],[103.83798,1.28252],[103.83852,1.28219],[103.83997,1.28125],[103.84036,1.28099],[103.84078,1.28068],[103.84095,1.28057],[103.8411,1.28048],[103.84124,1.28041],[103.84138,1.28035],[103.84157,1.28029],[103.84181,1.28022],[103.84209,1.28018],[103.84242,1.28017],[103.84267,1.28018],[103.84292,1.28022],[103.84315,1.28027],[103.84427,1.28055],[103.84467,1.28064],[103.84498,1.28069],[103.84519,1.28071],[103.84549,1.28071],[103.8458,1.28066],[103.84607,1.2806],[103.84625,1.28053],[103.84638,1.28048],[103.84663,1.28035],[103.84689,1.28017],[103.84705,1.28004],[103.84731,1.2798],[103.84754,1.27959],[103.84775,1.27943],[103.84794,1.2793],[103.84907,1.27862],[103.85083,1.27746],[103.85276,1.27622],[103.85308,1.27604],[103.85413,1.27548],[103.85471,1.27513],[103.8557,1.2745],[103.85766,1.27321],[103.85833,1.2728],[103.85852,1.2727],[103.85883,1.27259],[103.85914,1.27251],[103.85943,1.27247],[103.85975,1.27245],[103.85999,1.27246],[103.8603,1.2725],[103.86058,1.27256],[103.86076,1.27262],[103.86089,1.27267],[103.86116,1.27279],[103.86142,1.27295],[103.86184,1.27323],[103.86422,1.27488],[103.86517,1.27555],[103.86536,1.27569],[103.8656,1.2759],[103.86574,1.27603],[103.86587,1.27616],[103.86614,1.2765],[103.86652,1.27705],[103.86728,1.27821],[103.86806,1.27945],[103.86838,1.27978],[103.86848,1.2799],[103.86861,1.28008],[103.86895,1.28058],[103.86967,1.28172],[103.87048,1.28302],[103.87097,1.28385],[103.87113,1.28415],[103.87115,1.28422],[103.87123,1.28444],[103.87129,1.28476],[103.87134,1.28517],[103.87134,1.28546],[103.87132,1.28582],[103.87128,1.28617],[103.8712,1.28653],[103.87109,1.28689],[103.87098,1.28718],[103.87087,1.28743],[103.87055,1.28805],[103.86987,1.28931],[103.86951,1.29001],[103.86898,1.29109],[103.86836,1.29243],[103.86797,1.29328],[103.8679,1.29356],[103.86781,1.29401],[103.86779,1.29419],[103.86778,1.29434],[103.8678,1.29465],[103.86789,1.29515],[103.86792,1.29524],[103.86799,1.29539],[103.86817,1.29571],[103.86828,1.29589],[103.8684,1.29605],[103.86852,1.2962],[103.86873,1.29639],[103.8689,1.29654],[103.86904,1.29665],[103.86922,1.29675],[103.86937,1.29683],[103.86955,1.29689],[103.86977,1.29696],[103.86997,1.29702],[103.87027,1.29706],[103.87072,1.29709],[103.87225,1.29711],[103.87394,1.29716],[103.87444,1.29717],[103.87478,1.29715],[103.87504,1.2971],[103.87557,1.29698],[103.8758,1.29695],[103.87612,1.29693],[103.8763,1.29693],[103.8766,1.29695],[103.87697,1.29699],[103.87759,1.29709],[103.88052,1.2976],[103.8813,1.29773],[103.88179,1.2978],[103.88253,1.29789],[103.88303,1.29794],[103.88353,1.29798],[103.88403,1.29799],[103.88479,1.29799],[103.88603,1.29792],[103.88622,1.29793],[103.88636,1.29795],[103.8865,1.29795],[103.88672,1.29795],[103.88719,1.29792],[103.88738,1.2979],[103.88781,1.29784],[103.88831,1.29774],[103.88889,1.29761],[103.89016,1.2973],[103.89065,1.2972],[103.89083,1.29719],[103.89104,1.2972],[103.89129,1.29723],[103.89157,1.29728],[103.89216,1.29743],[103.89268,1.29759],[103.89366,1.2979],[103.89426,1.29811],[103.89493,1.29838],[103.89522,1.29852],[103.8955,1.29868],[103.89575,1.29881],[103.89596,1.29889],[103.89613,1.29894],[103.89658,1.29906],[103.89711,1.29916],[103.89734,1.2992],[103.89738,1.2992],[103.89743,1.29919],[103.89763,1.29921],[103.89835,1.29933],[103.89875,1.29942],[103.89905,1.2995],[103.89921,1.29956],[103.89954,1.29973],[103.90059,1.30035],[103.90083,1.30048],[103.90102,1.30057],[103.90118,1.30062],[103.90144,1.3007],[103.90205,1.30083],[103.90225,1.30088],[103.90242,1.30094],[103.90259,1.30101],[103.90283,1.30113],[103.90315,1.30133],[103.90564,1.30308],[103.90681,1.30388],[103.90741,1.30427],[103.90778,1.30448],[103.90816,1.30468],[103.90919,1.30519],[103.90984,1.30549],[103.91017,1.30563],[103.91042,1.30571],[103.91091,1.30584],[103.91135,1.30595],[103.91356,1.30646],[103.91612,1.30708],[103.91667,1.3072],[103.91769,1.30741],[103.91937,1.30771],[103.92052,1.30793],[103.92117,1.30806],[103.92202,1.30825],[103.92257,1.30836],[103.92313,1.30846],[103.92424,1.30863],[103.92475,1.30872],[103.92545,1.30887],[103.92606,1.30904],[103.92667,1.30918],[103.92707,1.30926],[103.92798,1.30941],[103.9285,1.3095],[103.92881,1.30958],[103.92905,1.30966],[103.92945,1.30981],[103.92984,1.30997],[103.9303,1.31012],[103.93104,1.31033],[103.93145,1.31043],[103.93172,1.31047],[103.93198,1.31048],[103.93313,1.31043],[103.93348,1.31042],[103.9338,1.31045],[103.93393,1.31047],[103.93409,1.3105],[103.9343,1.31056],[103.93469,1.31068],[103.93523,1.31088],[103.93555,1.31102],[103.93611,1.31131],[103.93639,1.31142],[103.93823,1.31196],[103.94184,1.31305]]}}]}